{"type": "FeatureCollection", "features": [{"type": "Feature", "geometry": {"type": "Polygon", "coordinates": [[[-121.58921, 39.79473], [-121.58475, 39.78067], [-121.58612, 39.78041], [-121.59057, 39.79447], [-121.58921, 39.79473]]]}, "properties": {"id": 1, "cells": 54, "cost": 72056, "fuel_group": "shrub", "step": 0}}, {"type": "Feature", "geometry": {"type": "Polygon", "coordinates": [[[-121.58587, 39.78418], [-121.58141, 39.77012], [-121.58277, 39.76987], [-121.58723, 39.78393], [-121.58587, 39.78418]]]}, "properties": {"id": 2, "cells": 54, "cost": 72056, "fuel_group": "shrub", "step": 1}}, {"type": "Feature", "geometry": {"type": "Polygon", "coordinates": [[[-121.58253, 39.77364], [-121.57807, 39.75958], [-121.57943, 39.75932], [-121.58389, 39.77338], [-121.58253, 39.77364]]]}, "properties": {"id": 3, "cells": 54, "cost": 72056, "fuel_group": "shrub", "step": 2}}, {"type": "Feature", "geometry": {"type": "Polygon", "coordinates": [[[-121.5028, 39.79053], [-121.49725, 39.77296], [-121.49861, 39.7727], [-121.50416, 39.79027], [-121.5028, 39.79053]]]}, "properties": {"id": 13, "cells": 66, "cost": 146780, "fuel_group": "timber", "step": 3}}, {"type": "Feature", "geometry": {"type": "Polygon", "coordinates": [[[-121.57918, 39.76309], [-121.57473, 39.74903], [-121.57609, 39.74878], [-121.58055, 39.76284], [-121.57918, 39.76309]]]}, "properties": {"id": 4, "cells": 54, "cost": 72056, "fuel_group": "shrub", "step": 4}}, {"type": "Feature", "geometry": {"type": "Polygon", "coordinates": [[[-121.54434, 39.78736], [-121.53933, 39.77154], [-121.54069, 39.77128], [-121.5457, 39.7871], [-121.54434, 39.78736]]]}, "properties": {"id": 8, "cells": 60, "cost": 133437, "fuel_group": "timber", "step": 5}}, {"type": "Feature", "geometry": {"type": "Polygon", "coordinates": [[[-121.57584, 39.75255], [-121.57139, 39.73849], [-121.57275, 39.73823], [-121.5772, 39.75229], [-121.57584, 39.75255]]]}, "properties": {"id": 5, "cells": 54, "cost": 72056, "fuel_group": "shrub", "step": 6}}, {"type": "Feature", "geometry": {"type": "Polygon", "coordinates": [[[-121.50946, 39.81162], [-121.50391, 39.79405], [-121.50527, 39.79379], [-121.51083, 39.81136], [-121.50946, 39.81162]]]}, "properties": {"id": 16, "cells": 66, "cost": 146780, "fuel_group": "timber", "step": 7}}, {"type": "Feature", "geometry": {"type": "Polygon", "coordinates": [[[-121.53766, 39.76627], [-121.53266, 39.75045], [-121.53402, 39.7502], [-121.53903, 39.76601], [-121.53766, 39.76627]]]}, "properties": {"id": 10, "cells": 60, "cost": 133437, "fuel_group": "timber", "step": 8}}, {"type": "Feature", "geometry": {"type": "Polygon", "coordinates": [[[-121.5725, 39.74201], [-121.56805, 39.72795], [-121.56941, 39.72769], [-121.57386, 39.74175], [-121.5725, 39.74201]]]}, "properties": {"id": 6, "cells": 54, "cost": 72056, "fuel_group": "shrub", "step": 9}}, {"type": "Feature", "geometry": {"type": "Polygon", "coordinates": [[[-121.54767, 39.7979], [-121.54267, 39.78208], [-121.54403, 39.78183], [-121.54904, 39.79764], [-121.54767, 39.7979]]]}, "properties": {"id": 7, "cells": 60, "cost": 133437, "fuel_group": "timber", "step": 10}}, {"type": "Feature", "geometry": {"type": "Polygon", "coordinates": [[[-121.541, 39.77681], [-121.536, 39.761], [-121.53736, 39.76074], [-121.54236, 39.77656], [-121.541, 39.77681]]]}, "properties": {"id": 9, "cells": 60, "cost": 133437, "fuel_group": "timber", "step": 11}}, {"type": "Feature", "geometry": {"type": "Polygon", "coordinates": [[[-121.53433, 39.75572], [-121.52933, 39.73991], [-121.53069, 39.73965], [-121.53569, 39.75547], [-121.53433, 39.75572]]]}, "properties": {"id": 11, "cells": 60, "cost": 133437, "fuel_group": "timber", "step": 12}}, {"type": "Feature", "geometry": {"type": "Polygon", "coordinates": [[[-121.50613, 39.80108], [-121.50058, 39.7835], [-121.50194, 39.78324], [-121.50749, 39.80082], [-121.50613, 39.80108]]]}, "properties": {"id": 12, "cells": 66, "cost": 146780, "fuel_group": "timber", "step": 13}}, {"type": "Feature", "geometry": {"type": "Polygon", "coordinates": [[[-121.49947, 39.77999], [-121.49392, 39.76241], [-121.49528, 39.76216], [-121.50083, 39.77973], [-121.49947, 39.77999]]]}, "properties": {"id": 14, "cells": 66, "cost": 146780, "fuel_group": "timber", "step": 14}}, {"type": "Feature", "geometry": {"type": "Polygon", "coordinates": [[[-121.49614, 39.76944], [-121.49059, 39.75187], [-121.49195, 39.75161], [-121.4975, 39.76919], [-121.49614, 39.76944]]]}, "properties": {"id": 15, "cells": 66, "cost": 146780, "fuel_group": "timber", "step": 15}}]}