{"type":"FeatureCollection","features":[{"type":"Feature","geometry":{"type":"Point","coordinates":[-121.61992,39.75816]},"properties":{"id":0,"row":84,"col":50}},{"type":"Feature","geometry":{"type":"Point","coordinates":[-121.60767,39.75849]},"properties":{"id":1,"row":84,"col":57}},{"type":"Feature","geometry":{"type":"Point","coordinates":[-121.63846,39.75832]},"properties":{"id":2,"row":84,"col":38}},{"type":"Feature","geometry":{"type":"Point","coordinates":[-121.62124,39.76292]},"properties":{"id":3,"row":80,"col":49}},{"type":"Feature","geometry":{"type":"Point","coordinates":[-121.61588,39.75743]},"properties":{"id":4,"row":85,"col":52}},{"type":"Feature","geometry":{"type":"Point","coordinates":[-121.60121,39.76192]},"properties":{"id":5,"row":81,"col":61}},{"type":"Feature","geometry":{"type":"Point","coordinates":[-121.61595,39.76617]},"properties":{"id":6,"row":78,"col":52}},{"type":"Feature","geometry":{"type":"Point","coordinates":[-121.63171,39.75222]},"properties":{"id":7,"row":89,"col":42}},{"type":"Feature","geometry":{"type":"Point","coordinates":[-121.59914,39.76206]},"properties":{"id":8,"row":81,"col":63}},{"type":"Feature","geometry":{"type":"Point","coordinates":[-121.61899,39.76002]},"properties":{"id":9,"row":83,"col":50}},{"type":"Feature","geometry":{"type":"Point","coordinates":[-121.63785,39.76492]},"properties":{"id":10,"row":79,"col":38}},{"type":"Feature","geometry":{"type":"Point","coordinates":[-121.61063,39.75648]},"properties":{"id":11,"row":86,"col":55}},{"type":"Feature","geometry":{"type":"Point","coordinates":[-121.62087,39.76833]},"properties":{"id":12,"row":76,"col":49}},{"type":"Feature","geometry":{"type":"Point","coordinates":[-121.61403,39.76337]},"properties":{"id":13,"row":80,"col":53}},{"type":"Feature","geometry":{"type":"Point","coordinates":[-121.63309,39.76742]},"properties":{"id":14,"row":77,"col":41}},{"type":"Feature","geometry":{"type":"Point","coordinates":[-121.6387,39.76528]},"properties":{"id":15,"row":78,"col":38}},{"type":"Feature","geometry":{"type":"Point","coordinates":[-121.626,39.7334]},"properties":{"id":16,"row":105,"col":46}},{"type":"Feature","geometry":{"type":"Point","coordinates":[-121.60524,39.75044]},"properties":{"id":17,"row":91,"col":59}},{"type":"Feature","geometry":{"type":"Point","coordinates":[-121.63457,39.76624]},"properties":{"id":18,"row":78,"col":40}},{"type":"Feature","geometry":{"type":"Point","coordinates":[-121.63153,39.76807]},"properties":{"id":19,"row":76,"col":42}},{"type":"Feature","geometry":{"type":"Point","coordinates":[-121.62161,39.75874]},"properties":{"id":20,"row":84,"col":48}},{"type":"Feature","geometry":{"type":"Point","coordinates":[-121.60604,39.76074]},"properties":{"id":21,"row":82,"col":58}},{"type":"Feature","geometry":{"type":"Point","coordinates":[-121.6126,39.76598]},"properties":{"id":22,"row":78,"col":54}},{"type":"Feature","geometry":{"type":"Point","coordinates":[-121.6108,39.7661]},"properties":{"id":23,"row":78,"col":55}},{"type":"Feature","geometry":{"type":"Point","coordinates":[-121.62754,39.75333]},"properties":{"id":24,"row":88,"col":45}},{"type":"Feature","geometry":{"type":"Point","coordinates":[-121.61051,39.7549]},"properties":{"id":25,"row":87,"col":55}},{"type":"Feature","geometry":{"type":"Point","coordinates":[-121.5848,39.7571]},"properties":{"id":26,"row":85,"col":72}},{"type":"Feature","geometry":{"type":"Point","coordinates":[-121.63288,39.75141]},"properties":{"id":27,"row":90,"col":41}},{"type":"Feature","geometry":{"type":"Point","coordinates":[-121.59759,39.76728]},"properties":{"id":28,"row":77,"col":64}},{"type":"Feature","geometry":{"type":"Point","coordinates":[-121.6058,39.76466]},"properties":{"id":29,"row":79,"col":58}},{"type":"Feature","geometry":{"type":"Point","coordinates":[-121.61882,39.77386]},"properties":{"id":30,"row":71,"col":50}},{"type":"Feature","geometry":{"type":"Point","coordinates":[-121.62495,39.74537]},"properties":{"id":31,"row":95,"col":46}},{"type":"Feature","geometry":{"type":"Point","coordinates":[-121.63771,39.76913]},"properties":{"id":32,"row":75,"col":38}},{"type":"Feature","geometry":{"type":"Point","coordinates":[-121.61395,39.75994]},"properties":{"id":33,"row":83,"col":53}},{"type":"Feature","geometry":{"type":"Point","coordinates":[-121.60737,39.75644]},"properties":{"id":34,"row":86,"col":57}},{"type":"Feature","geometry":{"type":"Point","coordinates":[-121.585,39.76541]},"properties":{"id":35,"row":78,"col":71}},{"type":"Feature","geometry":{"type":"Point","coordinates":[-121.62603,39.7658]},"properties":{"id":36,"row":78,"col":46}},{"type":"Feature","geometry":{"type":"Point","coordinates":[-121.62914,39.75398]},"properties":{"id":37,"row":88,"col":44}},{"type":"Feature","geometry":{"type":"Point","coordinates":[-121.62544,39.76912]},"properties":{"id":38,"row":75,"col":46}},{"type":"Feature","geometry":{"type":"Point","coordinates":[-121.60701,39.7589]},"properties":{"id":39,"row":84,"col":58}},{"type":"Feature","geometry":{"type":"Point","coordinates":[-121.62161,39.75237]},"properties":{"id":40,"row":89,"col":48}},{"type":"Feature","geometry":{"type":"Point","coordinates":[-121.63265,39.74119]},"properties":{"id":41,"row":99,"col":42}},{"type":"Feature","geometry":{"type":"Point","coordinates":[-121.61168,39.75392]},"properties":{"id":42,"row":88,"col":55}},{"type":"Feature","geometry":{"type":"Point","coordinates":[-121.61776,39.77153]},"properties":{"id":43,"row":73,"col":51}},{"type":"Feature","geometry":{"type":"Point","coordinates":[-121.61515,39.76221]},"properties":{"id":44,"row":81,"col":53}},{"type":"Feature","geometry":{"type":"Point","coordinates":[-121.60499,39.77045]},"properties":{"id":45,"row":74,"col":59}},{"type":"Feature","geometry":{"type":"Point","coordinates":[-121.63165,39.76234]},"properties":{"id":46,"row":81,"col":42}},{"type":"Feature","geometry":{"type":"Point","coordinates":[-121.61217,39.76863]},"properties":{"id":47,"row":76,"col":54}},{"type":"Feature","geometry":{"type":"Point","coordinates":[-121.61792,39.77187]},"properties":{"id":48,"row":73,"col":51}},{"type":"Feature","geometry":{"type":"Point","coordinates":[-121.62252,39.77913]},"properties":{"id":49,"row":67,"col":48}},{"type":"Feature","geometry":{"type":"Point","coordinates":[-121.61589,39.77553]},"properties":{"id":50,"row":70,"col":52}},{"type":"Feature","geometry":{"type":"Point","coordinates":[-121.6333,39.75444]},"properties":{"id":51,"row":87,"col":41}},{"type":"Feature","geometry":{"type":"Point","coordinates":[-121.59757,39.75809]},"properties":{"id":52,"row":84,"col":64}},{"type":"Feature","geometry":{"type":"Point","coordinates":[-121.60786,39.76776]},"properties":{"id":53,"row":76,"col":57}},{"type":"Feature","geometry":{"type":"Point","coordinates":[-121.60755,39.73584]},"properties":{"id":54,"row":103,"col":57}},{"type":"Feature","geometry":{"type":"Point","coordinates":[-121.6252,39.76516]},"properties":{"id":55,"row":79,"col":46}},{"type":"Feature","geometry":{"type":"Point","coordinates":[-121.61753,39.75333]},"properties":{"id":56,"row":88,"col":51}},{"type":"Feature","geometry":{"type":"Point","coordinates":[-121.63227,39.77685]},"properties":{"id":57,"row":69,"col":42}},{"type":"Feature","geometry":{"type":"Point","coordinates":[-121.59844,39.75532]},"properties":{"id":58,"row":87,"col":63}},{"type":"Feature","geometry":{"type":"Point","coordinates":[-121.6226,39.75514]},"properties":{"id":59,"row":87,"col":48}},{"type":"Feature","geometry":{"type":"Point","coordinates":[-121.63488,39.76058]},"properties":{"id":60,"row":82,"col":40}},{"type":"Feature","geometry":{"type":"Point","coordinates":[-121.63443,39.7618]},"properties":{"id":61,"row":81,"col":40}},{"type":"Feature","geometry":{"type":"Point","coordinates":[-121.61746,39.76845]},"properties":{"id":62,"row":76,"col":51}},{"type":"Feature","geometry":{"type":"Point","coordinates":[-121.61357,39.78243]},"properties":{"id":63,"row":64,"col":54}},{"type":"Feature","geometry":{"type":"Point","coordinates":[-121.63575,39.77326]},"properties":{"id":64,"row":72,"col":40}},{"type":"Feature","geometry":{"type":"Point","coordinates":[-121.61298,39.75838]},"properties":{"id":65,"row":84,"col":54}},{"type":"Feature","geometry":{"type":"Point","coordinates":[-121.64103,39.77706]},"properties":{"id":66,"row":69,"col":36}},{"type":"Feature","geometry":{"type":"Point","coordinates":[-121.60922,39.76951]},"properties":{"id":67,"row":75,"col":56}},{"type":"Feature","geometry":{"type":"Point","coordinates":[-121.60753,39.77494]},"properties":{"id":68,"row":70,"col":57}},{"type":"Feature","geometry":{"type":"Point","coordinates":[-121.6248,39.76012]},"properties":{"id":69,"row":83,"col":46}},{"type":"Feature","geometry":{"type":"Point","coordinates":[-121.61476,39.74712]},"properties":{"id":70,"row":94,"col":53}},{"type":"Feature","geometry":{"type":"Point","coordinates":[-121.58922,39.75768]},"properties":{"id":71,"row":85,"col":69}},{"type":"Feature","geometry":{"type":"Point","coordinates":[-121.61301,39.75349]},"properties":{"id":72,"row":88,"col":54}},{"type":"Feature","geometry":{"type":"Point","coordinates":[-121.62304,39.74391]},"properties":{"id":73,"row":96,"col":48}},{"type":"Feature","geometry":{"type":"Point","coordinates":[-121.60596,39.76221]},"properties":{"id":74,"row":81,"col":58}},{"type":"Feature","geometry":{"type":"Point","coordinates":[-121.61812,39.77408]},"properties":{"id":75,"row":71,"col":51}},{"type":"Feature","geometry":{"type":"Point","coordinates":[-121.61109,39.74843]},"properties":{"id":76,"row":92,"col":55}},{"type":"Feature","geometry":{"type":"Point","coordinates":[-121.61062,39.76477]},"properties":{"id":77,"row":79,"col":55}},{"type":"Feature","geometry":{"type":"Point","coordinates":[-121.60163,39.7526]},"properties":{"id":78,"row":89,"col":61}},{"type":"Feature","geometry":{"type":"Point","coordinates":[-121.6077,39.76048]},"properties":{"id":79,"row":82,"col":57}},{"type":"Feature","geometry":{"type":"Point","coordinates":[-121.60897,39.77234]},"properties":{"id":80,"row":73,"col":56}},{"type":"Feature","geometry":{"type":"Point","coordinates":[-121.58736,39.76247]},"properties":{"id":81,"row":81,"col":70}},{"type":"Feature","geometry":{"type":"Point","coordinates":[-121.62164,39.76204]},"properties":{"id":82,"row":81,"col":48}},{"type":"Feature","geometry":{"type":"Point","coordinates":[-121.59674,39.76072]},"properties":{"id":83,"row":82,"col":64}},{"type":"Feature","geometry":{"type":"Point","coordinates":[-121.61023,39.76079]},"properties":{"id":84,"row":82,"col":56}},{"type":"Feature","geometry":{"type":"Point","coordinates":[-121.62468,39.77156]},"properties":{"id":85,"row":73,"col":47}},{"type":"Feature","geometry":{"type":"Point","coordinates":[-121.61331,39.74233]},"properties":{"id":86,"row":98,"col":54}},{"type":"Feature","geometry":{"type":"Point","coordinates":[-121.62601,39.7619]},"properties":{"id":87,"row":81,"col":46}},{"type":"Feature","geometry":{"type":"Point","coordinates":[-121.60899,39.76831]},"properties":{"id":88,"row":76,"col":56}},{"type":"Feature","geometry":{"type":"Point","coordinates":[-121.61024,39.74965]},"properties":{"id":89,"row":91,"col":56}},{"type":"Feature","geometry":{"type":"Point","coordinates":[-121.63826,39.75764]},"properties":{"id":90,"row":85,"col":38}},{"type":"Feature","geometry":{"type":"Point","coordinates":[-121.61813,39.76413]},"properties":{"id":91,"row":79,"col":51}},{"type":"Feature","geometry":{"type":"Point","coordinates":[-121.61018,39.75215]},"properties":{"id":92,"row":89,"col":56}},{"type":"Feature","geometry":{"type":"Point","coordinates":[-121.62559,39.76448]},"properties":{"id":93,"row":79,"col":46}},{"type":"Feature","geometry":{"type":"Point","coordinates":[-121.60329,39.7636]},"properties":{"id":94,"row":80,"col":60}},{"type":"Feature","geometry":{"type":"Point","coordinates":[-121.61217,39.75247]},"properties":{"id":95,"row":89,"col":54}},{"type":"Feature","geometry":{"type":"Point","coordinates":[-121.58578,39.75963]},"properties":{"id":96,"row":83,"col":71}},{"type":"Feature","geometry":{"type":"Point","coordinates":[-121.60777,39.74098]},"properties":{"id":97,"row":99,"col":57}},{"type":"Feature","geometry":{"type":"Point","coordinates":[-121.6189,39.75654]},"properties":{"id":98,"row":86,"col":50}},{"type":"Feature","geometry":{"type":"Point","coordinates":[-121.61762,39.77862]},"properties":{"id":99,"row":67,"col":51}},{"type":"Feature","geometry":{"type":"Point","coordinates":[-121.62369,39.78201]},"properties":{"id":100,"row":64,"col":47}},{"type":"Feature","geometry":{"type":"Point","coordinates":[-121.62437,39.76311]},"properties":{"id":101,"row":80,"col":47}},{"type":"Feature","geometry":{"type":"Point","coordinates":[-121.61663,39.75269]},"properties":{"id":102,"row":89,"col":52}},{"type":"Feature","geometry":{"type":"Point","coordinates":[-121.61467,39.75677]},"properties":{"id":103,"row":86,"col":53}},{"type":"Feature","geometry":{"type":"Point","coordinates":[-121.58947,39.73855]},"properties":{"id":104,"row":101,"col":69}},{"type":"Feature","geometry":{"type":"Point","coordinates":[-121.5931,39.75793]},"properties":{"id":105,"row":85,"col":66}},{"type":"Feature","geometry":{"type":"Point","coordinates":[-121.6134,39.74953]},"properties":{"id":106,"row":92,"col":54}},{"type":"Feature","geometry":{"type":"Point","coordinates":[-121.62968,39.79125]},"properties":{"id":107,"row":57,"col":43}},{"type":"Feature","geometry":{"type":"Point","coordinates":[-121.62515,39.74465]},"properties":{"id":108,"row":96,"col":46}},{"type":"Feature","geometry":{"type":"Point","coordinates":[-121.60779,39.76432]},"properties":{"id":109,"row":79,"col":57}},{"type":"Feature","geometry":{"type":"Point","coordinates":[-121.6211,39.7725]},"properties":{"id":110,"row":72,"col":49}},{"type":"Feature","geometry":{"type":"Point","coordinates":[-121.62359,39.74358]},"properties":{"id":111,"row":97,"col":47}},{"type":"Feature","geometry":{"type":"Point","coordinates":[-121.61098,39.772]},"properties":{"id":112,"row":73,"col":55}},{"type":"Feature","geometry":{"type":"Point","coordinates":[-121.61799,39.74003]},"properties":{"id":113,"row":99,"col":51}},{"type":"Feature","geometry":{"type":"Point","coordinates":[-121.58773,39.77358]},"properties":{"id":114,"row":72,"col":70}},{"type":"Feature","geometry":{"type":"Point","coordinates":[-121.61317,39.76522]},"properties":{"id":115,"row":78,"col":54}},{"type":"Feature","geometry":{"type":"Point","coordinates":[-121.62931,39.7472]},"properties":{"id":116,"row":94,"col":44}},{"type":"Feature","geometry":{"type":"Point","coordinates":[-121.61046,39.76007]},"properties":{"id":117,"row":83,"col":55}},{"type":"Feature","geometry":{"type":"Point","coordinates":[-121.62419,39.7654]},"properties":{"id":118,"row":78,"col":47}},{"type":"Feature","geometry":{"type":"Point","coordinates":[-121.62839,39.74808]},"properties":{"id":119,"row":93,"col":44}},{"type":"Feature","geometry":{"type":"Point","coordinates":[-121.60849,39.74803]},"properties":{"id":120,"row":93,"col":57}},{"type":"Feature","geometry":{"type":"Point","coordinates":[-121.62217,39.73648]},"properties":{"id":121,"row":102,"col":48}},{"type":"Feature","geometry":{"type":"Point","coordinates":[-121.59619,39.7641]},"properties":{"id":122,"row":79,"col":64}},{"type":"Feature","geometry":{"type":"Point","coordinates":[-121.60348,39.76031]},"properties":{"id":123,"row":83,"col":60}},{"type":"Feature","geometry":{"type":"Point","coordinates":[-121.62792,39.75561]},"properties":{"id":124,"row":86,"col":45}},{"type":"Feature","geometry":{"type":"Point","coordinates":[-121.59612,39.75286]},"properties":{"id":125,"row":89,"col":64}},{"type":"Feature","geometry":{"type":"Point","coordinates":[-121.61068,39.76954]},"properties":{"id":126,"row":75,"col":55}},{"type":"Feature","geometry":{"type":"Point","coordinates":[-121.61795,39.7929]},"properties":{"id":127,"row":55,"col":51}},{"type":"Feature","geometry":{"type":"Point","coordinates":[-121.61319,39.7658]},"properties":{"id":128,"row":78,"col":54}},{"type":"Feature","geometry":{"type":"Point","coordinates":[-121.58507,39.75738]},"properties":{"id":129,"row":85,"col":71}},{"type":"Feature","geometry":{"type":"Point","coordinates":[-121.63709,39.77467]},"properties":{"id":130,"row":71,"col":39}},{"type":"Feature","geometry":{"type":"Point","coordinates":[-121.6115,39.7556]},"properties":{"id":131,"row":86,"col":55}},{"type":"Feature","geometry":{"type":"Point","coordinates":[-121.63638,39.76743]},"properties":{"id":132,"row":77,"col":39}},{"type":"Feature","geometry":{"type":"Point","coordinates":[-121.64419,39.73704]},"properties":{"id":133,"row":102,"col":34}},{"type":"Feature","geometry":{"type":"Point","coordinates":[-121.61894,39.75889]},"properties":{"id":134,"row":84,"col":50}},{"type":"Feature","geometry":{"type":"Point","coordinates":[-121.62828,39.76305]},"properties":{"id":135,"row":80,"col":44}},{"type":"Feature","geometry":{"type":"Point","coordinates":[-121.64582,39.74736]},"properties":{"id":136,"row":93,"col":33}},{"type":"Feature","geometry":{"type":"Point","coordinates":[-121.61232,39.76289]},"properties":{"id":137,"row":80,"col":54}},{"type":"Feature","geometry":{"type":"Point","coordinates":[-121.60643,39.76953]},"properties":{"id":138,"row":75,"col":58}},{"type":"Feature","geometry":{"type":"Point","coordinates":[-121.59861,39.75769]},"properties":{"id":139,"row":85,"col":63}},{"type":"Feature","geometry":{"type":"Point","coordinates":[-121.62675,39.75824]},"properties":{"id":140,"row":84,"col":45}},{"type":"Feature","geometry":{"type":"Point","coordinates":[-121.62569,39.75439]},"properties":{"id":141,"row":88,"col":46}},{"type":"Feature","geometry":{"type":"Point","coordinates":[-121.61531,39.73794]},"properties":{"id":142,"row":101,"col":52}},{"type":"Feature","geometry":{"type":"Point","coordinates":[-121.62257,39.7621]},"properties":{"id":143,"row":81,"col":48}},{"type":"Feature","geometry":{"type":"Point","coordinates":[-121.61229,39.75246]},"properties":{"id":144,"row":89,"col":54}},{"type":"Feature","geometry":{"type":"Point","coordinates":[-121.61696,39.77677]},"properties":{"id":145,"row":69,"col":51}},{"type":"Feature","geometry":{"type":"Point","coordinates":[-121.62578,39.75452]},"properties":{"id":146,"row":87,"col":46}},{"type":"Feature","geometry":{"type":"Point","coordinates":[-121.63521,39.7589]},"properties":{"id":147,"row":84,"col":40}},{"type":"Feature","geometry":{"type":"Point","coordinates":[-121.61664,39.75835]},"properties":{"id":148,"row":84,"col":52}},{"type":"Feature","geometry":{"type":"Point","coordinates":[-121.60429,39.77805]},"properties":{"id":149,"row":68,"col":59}},{"type":"Feature","geometry":{"type":"Point","coordinates":[-121.62748,39.76994]},"properties":{"id":150,"row":75,"col":45}},{"type":"Feature","geometry":{"type":"Point","coordinates":[-121.63345,39.7663]},"properties":{"id":151,"row":78,"col":41}},{"type":"Feature","geometry":{"type":"Point","coordinates":[-121.61164,39.76272]},"properties":{"id":152,"row":81,"col":55}},{"type":"Feature","geometry":{"type":"Point","coordinates":[-121.58951,39.75194]},"properties":{"id":153,"row":90,"col":69}},{"type":"Feature","geometry":{"type":"Point","coordinates":[-121.64414,39.76527]},"properties":{"id":154,"row":78,"col":34}},{"type":"Feature","geometry":{"type":"Point","coordinates":[-121.6232,39.76513]},"properties":{"id":155,"row":79,"col":47}},{"type":"Feature","geometry":{"type":"Point","coordinates":[-121.61098,39.75961]},"properties":{"id":156,"row":83,"col":55}},{"type":"Feature","geometry":{"type":"Point","coordinates":[-121.64605,39.76351]},"properties":{"id":157,"row":80,"col":33}},{"type":"Feature","geometry":{"type":"Point","coordinates":[-121.60668,39.74802]},"properties":{"id":158,"row":93,"col":58}},{"type":"Feature","geometry":{"type":"Point","coordinates":[-121.59086,39.77261]},"properties":{"id":159,"row":72,"col":68}},{"type":"Feature","geometry":{"type":"Point","coordinates":[-121.64628,39.77763]},"properties":{"id":160,"row":68,"col":33}},{"type":"Feature","geometry":{"type":"Point","coordinates":[-121.64433,39.76729]},"properties":{"id":161,"row":77,"col":34}},{"type":"Feature","geometry":{"type":"Point","coordinates":[-121.61395,39.77574]},"properties":{"id":162,"row":70,"col":53}},{"type":"Feature","geometry":{"type":"Point","coordinates":[-121.58936,39.74819]},"properties":{"id":163,"row":93,"col":69}},{"type":"Feature","geometry":{"type":"Point","coordinates":[-121.64398,39.76604]},"properties":{"id":164,"row":78,"col":35}},{"type":"Feature","geometry":{"type":"Point","coordinates":[-121.62774,39.76253]},"properties":{"id":165,"row":81,"col":45}},{"type":"Feature","geometry":{"type":"Point","coordinates":[-121.62401,39.76071]},"properties":{"id":166,"row":82,"col":47}},{"type":"Feature","geometry":{"type":"Point","coordinates":[-121.63743,39.77333]},"properties":{"id":167,"row":72,"col":39}},{"type":"Feature","geometry":{"type":"Point","coordinates":[-121.5921,39.76277]},"properties":{"id":168,"row":81,"col":67}},{"type":"Feature","geometry":{"type":"Point","coordinates":[-121.61455,39.75133]},"properties":{"id":169,"row":90,"col":53}},{"type":"Feature","geometry":{"type":"Point","coordinates":[-121.62716,39.76162]},"properties":{"id":170,"row":81,"col":45}},{"type":"Feature","geometry":{"type":"Point","coordinates":[-121.61614,39.76608]},"properties":{"id":171,"row":78,"col":52}},{"type":"Feature","geometry":{"type":"Point","coordinates":[-121.59283,39.75016]},"properties":{"id":172,"row":91,"col":66}},{"type":"Feature","geometry":{"type":"Point","coordinates":[-121.61984,39.76752]},"properties":{"id":173,"row":77,"col":50}},{"type":"Feature","geometry":{"type":"Point","coordinates":[-121.62848,39.75323]},"properties":{"id":174,"row":88,"col":44}},{"type":"Feature","geometry":{"type":"Point","coordinates":[-121.61955,39.77191]},"properties":{"id":175,"row":73,"col":50}},{"type":"Feature","geometry":{"type":"Point","coordinates":[-121.62008,39.76419]},"properties":{"id":176,"row":79,"col":49}},{"type":"Feature","geometry":{"type":"Point","coordinates":[-121.61912,39.76576]},"properties":{"id":177,"row":78,"col":50}},{"type":"Feature","geometry":{"type":"Point","coordinates":[-121.62006,39.76724]},"properties":{"id":178,"row":77,"col":49}},{"type":"Feature","geometry":{"type":"Point","coordinates":[-121.60809,39.7679]},"properties":{"id":179,"row":76,"col":57}},{"type":"Feature","geometry":{"type":"Point","coordinates":[-121.62954,39.75843]},"properties":{"id":180,"row":84,"col":44}},{"type":"Feature","geometry":{"type":"Point","coordinates":[-121.62787,39.7502]},"properties":{"id":181,"row":91,"col":45}},{"type":"Feature","geometry":{"type":"Point","coordinates":[-121.60538,39.74976]},"properties":{"id":182,"row":91,"col":59}},{"type":"Feature","geometry":{"type":"Point","coordinates":[-121.59552,39.75913]},"properties":{"id":183,"row":84,"col":65}},{"type":"Feature","geometry":{"type":"Point","coordinates":[-121.61716,39.78239]},"properties":{"id":184,"row":64,"col":51}},{"type":"Feature","geometry":{"type":"Point","coordinates":[-121.62284,39.74412]},"properties":{"id":185,"row":96,"col":48}},{"type":"Feature","geometry":{"type":"Point","coordinates":[-121.63834,39.75885]},"properties":{"id":186,"row":84,"col":38}},{"type":"Feature","geometry":{"type":"Point","coordinates":[-121.61348,39.7571]},"properties":{"id":187,"row":85,"col":54}},{"type":"Feature","geometry":{"type":"Point","coordinates":[-121.62826,39.75501]},"properties":{"id":188,"row":87,"col":44}},{"type":"Feature","geometry":{"type":"Point","coordinates":[-121.59249,39.75201]},"properties":{"id":189,"row":89,"col":67}},{"type":"Feature","geometry":{"type":"Point","coordinates":[-121.62912,39.758]},"properties":{"id":190,"row":84,"col":44}},{"type":"Feature","geometry":{"type":"Point","coordinates":[-121.60414,39.75587]},"properties":{"id":191,"row":86,"col":59}},{"type":"Feature","geometry":{"type":"Point","coordinates":[-121.61075,39.75275]},"properties":{"id":192,"row":89,"col":55}},{"type":"Feature","geometry":{"type":"Point","coordinates":[-121.60701,39.76688]},"properties":{"id":193,"row":77,"col":58}},{"type":"Feature","geometry":{"type":"Point","coordinates":[-121.62521,39.7736]},"properties":{"id":194,"row":72,"col":46}},{"type":"Feature","geometry":{"type":"Point","coordinates":[-121.6286,39.77093]},"properties":{"id":195,"row":74,"col":44}},{"type":"Feature","geometry":{"type":"Point","coordinates":[-121.60075,39.75563]},"properties":{"id":196,"row":86,"col":62}},{"type":"Feature","geometry":{"type":"Point","coordinates":[-121.61747,39.76782]},"properties":{"id":197,"row":76,"col":51}},{"type":"Feature","geometry":{"type":"Point","coordinates":[-121.60964,39.74769]},"properties":{"id":198,"row":93,"col":56}},{"type":"Feature","geometry":{"type":"Point","coordinates":[-121.63043,39.7533]},"properties":{"id":199,"row":88,"col":43}},{"type":"Feature","geometry":{"type":"Point","coordinates":[-121.61405,39.75312]},"properties":{"id":200,"row":89,"col":53}},{"type":"Feature","geometry":{"type":"Point","coordinates":[-121.61245,39.73839]},"properties":{"id":201,"row":101,"col":54}},{"type":"Feature","geometry":{"type":"Point","coordinates":[-121.62568,39.76134]},"properties":{"id":202,"row":82,"col":46}},{"type":"Feature","geometry":{"type":"Point","coordinates":[-121.60894,39.76997]},"properties":{"id":203,"row":75,"col":56}},{"type":"Feature","geometry":{"type":"Point","coordinates":[-121.62688,39.75354]},"properties":{"id":204,"row":88,"col":45}},{"type":"Feature","geometry":{"type":"Point","coordinates":[-121.63873,39.76655]},"properties":{"id":205,"row":77,"col":38}},{"type":"Feature","geometry":{"type":"Point","coordinates":[-121.62633,39.75627]},"properties":{"id":206,"row":86,"col":46}},{"type":"Feature","geometry":{"type":"Point","coordinates":[-121.61454,39.7603]},"properties":{"id":207,"row":83,"col":53}},{"type":"Feature","geometry":{"type":"Point","coordinates":[-121.60161,39.75997]},"properties":{"id":208,"row":83,"col":61}},{"type":"Feature","geometry":{"type":"Point","coordinates":[-121.62191,39.76188]},"properties":{"id":209,"row":81,"col":48}},{"type":"Feature","geometry":{"type":"Point","coordinates":[-121.58307,39.76609]},"properties":{"id":210,"row":78,"col":73}},{"type":"Feature","geometry":{"type":"Point","coordinates":[-121.55467,39.77054]},"properties":{"id":211,"row":74,"col":90}},{"type":"Feature","geometry":{"type":"Point","coordinates":[-121.55811,39.77939]},"properties":{"id":212,"row":67,"col":88}},{"type":"Feature","geometry":{"type":"Point","coordinates":[-121.54428,39.7783]},"properties":{"id":213,"row":68,"col":97}},{"type":"Feature","geometry":{"type":"Point","coordinates":[-121.60356,39.76778]},"properties":{"id":214,"row":76,"col":60}},{"type":"Feature","geometry":{"type":"Point","coordinates":[-121.60133,39.76064]},"properties":{"id":215,"row":82,"col":61}},{"type":"Feature","geometry":{"type":"Point","coordinates":[-121.58486,39.77061]},"properties":{"id":216,"row":74,"col":71}},{"type":"Feature","geometry":{"type":"Point","coordinates":[-121.53688,39.77127]},"properties":{"id":217,"row":73,"col":101}},{"type":"Feature","geometry":{"type":"Point","coordinates":[-121.54349,39.77258]},"properties":{"id":218,"row":72,"col":97}},{"type":"Feature","geometry":{"type":"Point","coordinates":[-121.57868,39.77214]},"properties":{"id":219,"row":73,"col":75}},{"type":"Feature","geometry":{"type":"Point","coordinates":[-121.54355,39.77736]},"properties":{"id":220,"row":68,"col":97}},{"type":"Feature","geometry":{"type":"Point","coordinates":[-121.58562,39.76488]},"properties":{"id":221,"row":79,"col":71}},{"type":"Feature","geometry":{"type":"Point","coordinates":[-121.5497,39.76935]},"properties":{"id":222,"row":75,"col":93}},{"type":"Feature","geometry":{"type":"Point","coordinates":[-121.59048,39.76799]},"properties":{"id":223,"row":76,"col":68}},{"type":"Feature","geometry":{"type":"Point","coordinates":[-121.58627,39.76292]},"properties":{"id":224,"row":80,"col":71}},{"type":"Feature","geometry":{"type":"Point","coordinates":[-121.59588,39.76309]},"properties":{"id":225,"row":80,"col":65}},{"type":"Feature","geometry":{"type":"Point","coordinates":[-121.55151,39.77749]},"properties":{"id":226,"row":68,"col":92}},{"type":"Feature","geometry":{"type":"Point","coordinates":[-121.5666,39.7681]},"properties":{"id":227,"row":76,"col":83}},{"type":"Feature","geometry":{"type":"Point","coordinates":[-121.58416,39.77238]},"properties":{"id":228,"row":73,"col":72}},{"type":"Feature","geometry":{"type":"Point","coordinates":[-121.56291,39.77774]},"properties":{"id":229,"row":68,"col":85}},{"type":"Feature","geometry":{"type":"Point","coordinates":[-121.58306,39.77093]},"properties":{"id":230,"row":74,"col":73}},{"type":"Feature","geometry":{"type":"Point","coordinates":[-121.56152,39.78066]},"properties":{"id":231,"row":66,"col":86}},{"type":"Feature","geometry":{"type":"Point","coordinates":[-121.58733,39.7679]},"properties":{"id":232,"row":76,"col":70}},{"type":"Feature","geometry":{"type":"Point","coordinates":[-121.55906,39.77218]},"properties":{"id":233,"row":73,"col":88}},{"type":"Feature","geometry":{"type":"Point","coordinates":[-121.57729,39.77188]},"properties":{"id":234,"row":73,"col":76}},{"type":"Feature","geometry":{"type":"Point","coordinates":[-121.55434,39.7712]},"properties":{"id":235,"row":73,"col":91}},{"type":"Feature","geometry":{"type":"Point","coordinates":[-121.56942,39.77283]},"properties":{"id":236,"row":72,"col":81}},{"type":"Feature","geometry":{"type":"Point","coordinates":[-121.61029,39.75608]},"properties":{"id":237,"row":86,"col":56}},{"type":"Feature","geometry":{"type":"Point","coordinates":[-121.61759,39.75879]},"properties":{"id":238,"row":84,"col":51}},{"type":"Feature","geometry":{"type":"Point","coordinates":[-121.57413,39.77255]},"properties":{"id":239,"row":72,"col":78}},{"type":"Feature","geometry":{"type":"Point","coordinates":[-121.61809,39.82283]},"properties":{"id":240,"row":30,"col":51}},{"type":"Feature","geometry":{"type":"Point","coordinates":[-121.60659,39.84317]},"properties":{"id":241,"row":14,"col":58}},{"type":"Feature","geometry":{"type":"Point","coordinates":[-121.50698,39.84282]},"properties":{"id":242,"row":14,"col":120}},{"type":"Feature","geometry":{"type":"Point","coordinates":[-121.67198,39.82433]},"properties":{"id":243,"row":29,"col":17}},{"type":"Feature","geometry":{"type":"Point","coordinates":[-121.57133,39.81572]},"properties":{"id":244,"row":36,"col":80}},{"type":"Feature","geometry":{"type":"Point","coordinates":[-121.61301,39.852]},"properties":{"id":245,"row":6,"col":54}},{"type":"Feature","geometry":{"type":"Point","coordinates":[-121.51813,39.83906]},"properties":{"id":246,"row":17,"col":113}},{"type":"Feature","geometry":{"type":"Point","coordinates":[-121.52407,39.83911]},"properties":{"id":247,"row":17,"col":109}},{"type":"Feature","geometry":{"type":"Point","coordinates":[-121.64614,39.85014]},"properties":{"id":248,"row":8,"col":33}},{"type":"Feature","geometry":{"type":"Point","coordinates":[-121.65648,39.81575]},"properties":{"id":249,"row":36,"col":27}},{"type":"Feature","geometry":{"type":"Point","coordinates":[-121.54272,39.81967]},"properties":{"id":250,"row":33,"col":98}},{"type":"Feature","geometry":{"type":"Point","coordinates":[-121.64205,39.83587]},"properties":{"id":251,"row":20,"col":36}},{"type":"Feature","geometry":{"type":"Point","coordinates":[-121.52128,39.84088]},"properties":{"id":252,"row":15,"col":111}},{"type":"Feature","geometry":{"type":"Point","coordinates":[-121.55641,39.82121]},"properties":{"id":253,"row":32,"col":89}},{"type":"Feature","geometry":{"type":"Point","coordinates":[-121.6648,39.84267]},"properties":{"id":254,"row":14,"col":21}},{"type":"Feature","geometry":{"type":"Point","coordinates":[-121.47776,39.84531]},"properties":{"id":255,"row":12,"col":138}},{"type":"Feature","geometry":{"type":"Point","coordinates":[-121.68435,39.819]},"properties":{"id":256,"row":34,"col":9}},{"type":"Feature","geometry":{"type":"Point","coordinates":[-121.54098,39.82654]},"properties":{"id":257,"row":27,"col":99}},{"type":"Feature","geometry":{"type":"Point","coordinates":[-121.60274,39.85045]},"properties":{"id":258,"row":7,"col":60}},{"type":"Feature","geometry":{"type":"Point","coordinates":[-121.67328,39.84146]},"properties":{"id":259,"row":15,"col":16}},{"type":"Feature","geometry":{"type":"Point","coordinates":[-121.55201,39.84055]},"properties":{"id":260,"row":16,"col":92}},{"type":"Feature","geometry":{"type":"Point","coordinates":[-121.52005,39.81877]},"properties":{"id":261,"row":34,"col":112}},{"type":"Feature","geometry":{"type":"Point","coordinates":[-121.55791,39.84646]},"properties":{"id":262,"row":11,"col":88}},{"type":"Feature","geometry":{"type":"Point","coordinates":[-121.47355,39.81948]},"properties":{"id":263,"row":33,"col":141}},{"type":"Feature","geometry":{"type":"Point","coordinates":[-121.61362,39.84396]},"properties":{"id":264,"row":13,"col":53}},{"type":"Feature","geometry":{"type":"Point","coordinates":[-121.60847,39.83085]},"properties":{"id":265,"row":24,"col":57}},{"type":"Feature","geometry":{"type":"Point","coordinates":[-121.61493,39.83372]},"properties":{"id":266,"row":21,"col":53}},{"type":"Feature","geometry":{"type":"Point","coordinates":[-121.50909,39.84643]},"properties":{"id":267,"row":11,"col":119}},{"type":"Feature","geometry":{"type":"Point","coordinates":[-121.47863,39.8189]},"properties":{"id":268,"row":34,"col":138}},{"type":"Feature","geometry":{"type":"Point","coordinates":[-121.50768,39.83852]},"properties":{"id":269,"row":17,"col":120}},{"type":"Feature","geometry":{"type":"Point","coordinates":[-121.59419,39.84117]},"properties":{"id":270,"row":15,"col":66}},{"type":"Feature","geometry":{"type":"Point","coordinates":[-121.4776,39.84215]},"properties":{"id":271,"row":14,"col":139}},{"type":"Feature","geometry":{"type":"Point","coordinates":[-121.5122,39.82499]},"properties":{"id":272,"row":29,"col":117}},{"type":"Feature","geometry":{"type":"Point","coordinates":[-121.58363,39.83491]},"properties":{"id":273,"row":20,"col":72}},{"type":"Feature","geometry":{"type":"Point","coordinates":[-121.52917,39.83112]},"properties":{"id":274,"row":24,"col":106}},{"type":"Feature","geometry":{"type":"Point","coordinates":[-121.50262,39.82493]},"properties":{"id":275,"row":29,"col":123}},{"type":"Feature","geometry":{"type":"Point","coordinates":[-121.67093,39.84574]},"properties":{"id":276,"row":11,"col":18}},{"type":"Feature","geometry":{"type":"Point","coordinates":[-121.63635,39.84762]},"properties":{"id":277,"row":10,"col":39}},{"type":"Feature","geometry":{"type":"Point","coordinates":[-121.55573,39.83219]},"properties":{"id":278,"row":23,"col":90}},{"type":"Feature","geometry":{"type":"Point","coordinates":[-121.68369,39.82902]},"properties":{"id":279,"row":25,"col":10}},{"type":"Feature","geometry":{"type":"Point","coordinates":[-121.65,39.84649]},"properties":{"id":280,"row":11,"col":31}},{"type":"Feature","geometry":{"type":"Point","coordinates":[-121.51448,39.82285]},"properties":{"id":281,"row":30,"col":115}},{"type":"Feature","geometry":{"type":"Point","coordinates":[-121.49633,39.82759]},"properties":{"id":282,"row":27,"col":127}},{"type":"Feature","geometry":{"type":"Point","coordinates":[-121.62922,39.84094]},"properties":{"id":283,"row":15,"col":44}},{"type":"Feature","geometry":{"type":"Point","coordinates":[-121.48143,39.81538]},"properties":{"id":284,"row":37,"col":136}},{"type":"Feature","geometry":{"type":"Point","coordinates":[-121.53158,39.81817]},"properties":{"id":285,"row":34,"col":105}},{"type":"Feature","geometry":{"type":"Point","coordinates":[-121.5232,39.83308]},"properties":{"id":286,"row":22,"col":110}},{"type":"Feature","geometry":{"type":"Point","coordinates":[-121.5479,39.84055]},"properties":{"id":287,"row":16,"col":95}},{"type":"Feature","geometry":{"type":"Point","coordinates":[-121.51555,39.83316]},"properties":{"id":288,"row":22,"col":115}},{"type":"Feature","geometry":{"type":"Point","coordinates":[-121.64125,39.81844]},"properties":{"id":289,"row":34,"col":36}},{"type":"Feature","geometry":{"type":"Point","coordinates":[-121.62263,39.8406]},"properties":{"id":290,"row":16,"col":48}},{"type":"Feature","geometry":{"type":"Point","coordinates":[-121.58588,39.83652]},"properties":{"id":291,"row":19,"col":71}},{"type":"Feature","geometry":{"type":"Point","coordinates":[-121.59639,39.83464]},"properties":{"id":292,"row":21,"col":64}},{"type":"Feature","geometry":{"type":"Point","coordinates":[-121.61723,39.8426]},"properties":{"id":293,"row":14,"col":51}},{"type":"Feature","geometry":{"type":"Point","coordinates":[-121.6304,39.84101]},"properties":{"id":294,"row":15,"col":43}},{"type":"Feature","geometry":{"type":"Point","coordinates":[-121.66346,39.8243]},"properties":{"id":295,"row":29,"col":22}},{"type":"Feature","geometry":{"type":"Point","coordinates":[-121.6637,39.82213]},"properties":{"id":296,"row":31,"col":22}},{"type":"Feature","geometry":{"type":"Point","coordinates":[-121.52232,39.83483]},"properties":{"id":297,"row":20,"col":111}},{"type":"Feature","geometry":{"type":"Point","coordinates":[-121.6424,39.82185]},"properties":{"id":298,"row":31,"col":36}},{"type":"Feature","geometry":{"type":"Point","coordinates":[-121.53059,39.83292]},"properties":{"id":299,"row":22,"col":105}}]}