{"type":"FeatureCollection","features":[{"type":"Feature","geometry":{"type":"Polygon","coordinates":[[[-118.13462,34.24306],[-118.13527,34.24306],[-118.13592,34.24306],[-118.13657,34.24306],[-118.13722,34.24306],[-118.13787,34.24306],[-118.13853,34.24306],[-118.13918,34.24306],[-118.13918,34.2436],[-118.13918,34.24414],[-118.13853,34.24414],[-118.13787,34.24414],[-118.13722,34.24414],[-118.13657,34.24414],[-118.13592,34.24414],[-118.13527,34.24414],[-118.13462,34.24414],[-118.13396,34.24414],[-118.13331,34.24414],[-118.13266,34.24414],[-118.13201,34.24414],[-118.13136,34.24414],[-118.1307,34.24414],[-118.13005,34.24414],[-118.1294,34.24414],[-118.12875,34.24414],[-118.1281,34.24414],[-118.1281,34.2436],[-118.1281,34.24306],[-118.12875,34.24306],[-118.1294,34.24306],[-118.13005,34.24306],[-118.1307,34.24306],[-118.13136,34.24306],[-118.13201,34.24306],[-118.13266,34.24306],[-118.13331,34.24306],[-118.13396,34.24306],[-118.13462,34.24306]]]},"properties":{"id":513,"step":1,"cells":34,"cost":48060,"fuel_group":"grass_shrub"}},{"type":"Feature","geometry":{"type":"Polygon","coordinates":[[[-118.13527,34.24414],[-118.13527,34.24468],[-118.13592,34.24468],[-118.13592,34.24522],[-118.13657,34.24522],[-118.13657,34.24576],[-118.13722,34.24576],[-118.13722,34.2463],[-118.13787,34.2463],[-118.13787,34.24684],[-118.13787,34.24737],[-118.13722,34.24737],[-118.13722,34.24684],[-118.13657,34.24684],[-118.13657,34.2463],[-118.13592,34.2463],[-118.13592,34.24576],[-118.13527,34.24576],[-118.13527,34.24522],[-118.13462,34.24522],[-118.13462,34.24468],[-118.13396,34.24468],[-118.13396,34.24414],[-118.13331,34.24414],[-118.13331,34.2436],[-118.13266,34.2436],[-118.13266,34.24306],[-118.13201,34.24306],[-118.13201,34.24253],[-118.13136,34.24253],[-118.13136,34.24199],[-118.1307,34.24199],[-118.1307,34.24145],[-118.13005,34.24145],[-118.13005,34.24091],[-118.13005,34.24037],[-118.1307,34.24037],[-118.1307,34.24091],[-118.13136,34.24091],[-118.13136,34.24145],[-118.13201,34.24145],[-118.13201,34.24199],[-118.13266,34.24199],[-118.13266,34.24253],[-118.13331,34.24253],[-118.13331,34.24306],[-118.13396,34.24306],[-118.13396,34.2436],[-118.13462,34.2436],[-118.13462,34.24414],[-118.13527,34.24414]]]},"properties":{"id":517,"step":2,"cells":24,"cost":32040,"fuel_group":"grass_shrub"}},{"type":"Feature","geometry":{"type":"MultiPolygon","coordinates":[[[[-118.10854,34.19348],[-118.10854,34.19402],[-118.10789,34.19402],[-118.10789,34.19456],[-118.10724,34.19456],[-118.10724,34.1951],[-118.10659,34.1951],[-118.10659,34.19456],[-118.10659,34.19402],[-118.10724,34.19402],[-118.10724,34.19348],[-118.10789,34.19348],[-118.10789,34.19294],[-118.10854,34.19294],[-118.10854,34.1924],[-118.1092,34.1924],[-118.1092,34.19294],[-118.1092,34.19348],[-118.10854,34.19348]]],[[[-118.10528,34.19617],[-118.10528,34.19671],[-118.10463,34.19671],[-118.10463,34.19725],[-118.10398,34.19725],[-118.10398,34.19779],[-118.10333,34.19779],[-118.10333,34.19833],[-118.10268,34.19833],[-118.10268,34.19887],[-118.10203,34.19887],[-118.10203,34.19941],[-118.10137,34.19941],[-118.10137,34.19995],[-118.10072,34.19995],[-118.10072,34.20049],[-118.10007,34.20049],[-118.10007,34.20103],[-118.09942,34.20103],[-118.09942,34.20157],[-118.09877,34.20157],[-118.09877,34.2021],[-118.09811,34.2021],[-118.09811,34.20264],[-118.09746,34.20264],[-118.09746,34.20318],[-118.09681,34.20318],[-118.09681,34.20372],[-118.09616,34.20372],[-118.09616,34.20426],[-118.09551,34.20426],[-118.09551,34.2048],[-118.09486,34.2048],[-118.09486,34.20426],[-118.09486,34.20372],[-118.09551,34.20372],[-118.09551,34.20318],[-118.09616,34.20318],[-118.09616,34.20264],[-118.09681,34.20264],[-118.09681,34.2021],[-118.09746,34.2021],[-118.09746,34.20157],[-118.09811,34.20157],[-118.09811,34.20103],[-118.09877,34.20103],[-118.09877,34.20049],[-118.09942,34.20049],[-118.09942,34.19995],[-118.10007,34.19995],[-118.10007,34.19941],[-118.10072,34.19941],[-118.10072,34.19887],[-118.10137,34.19887],[-118.10137,34.19833],[-118.10203,34.19833],[-118.10203,34.19779],[-118.10268,34.19779],[-118.10268,34.19725],[-118.10333,34.19725],[-118.10333,34.19671],[-118.10398,34.19671],[-118.10398,34.19617],[-118.10463,34.19617],[-118.10463,34.19564],[-118.10528,34.19564],[-118.10528,34.1951],[-118.10594,34.1951],[-118.10659,34.1951],[-118.10659,34.19564],[-118.10594,34.19564],[-118.10594,34.19617],[-118.10528,34.19617]]],[[[-118.0942,34.20534],[-118.0942,34.2048],[-118.09486,34.2048],[-118.09486,34.20534],[-118.0942,34.20534]]]]},"properties":{"id":1519,"step":3,"cells":44,"cost":58740,"fuel_group":"shrub"}},{"type":"Feature","geometry":{"type":"Polygon","coordinates":[[[-118.17437,34.19294],[-118.17503,34.19294],[-118.17503,34.19348],[-118.17568,34.19348],[-118.17568,34.19402],[-118.17633,34.19402],[-118.17633,34.19456],[-118.17698,34.19456],[-118.17698,34.1951],[-118.17633,34.1951],[-118.17568,34.1951],[-118.17568,34.19456],[-118.17503,34.19456],[-118.17503,34.19402],[-118.17437,34.19402],[-118.17437,34.19348],[-118.17372,34.19348],[-118.17372,34.19294],[-118.17307,34.19294],[-118.17307,34.1924],[-118.17242,34.1924],[-118.17242,34.19186],[-118.17177,34.19186],[-118.17177,34.19132],[-118.17112,34.19132],[-118.17112,34.19078],[-118.17046,34.19078],[-118.17046,34.19024],[-118.17112,34.19024],[-118.17177,34.19024],[-118.17177,34.19078],[-118.17242,34.19078],[-118.17242,34.19132],[-118.17307,34.19132],[-118.17307,34.19186],[-118.17372,34.19186],[-118.17372,34.1924],[-118.17437,34.1924],[-118.17437,34.19294]]]},"properties":{"id":1611,"step":4,"cells":18,"cost":25810,"fuel_group":"grass_shrub"}},{"type":"Feature","geometry":{"type":"Polygon","coordinates":[[[-118.14048,34.23175],[-118.14048,34.23229],[-118.13983,34.23229],[-118.13983,34.23283],[-118.13918,34.23283],[-118.13918,34.23336],[-118.13853,34.23336],[-118.13853,34.2339],[-118.13787,34.2339],[-118.13787,34.23444],[-118.13722,34.23444],[-118.13722,34.23498],[-118.13657,34.23498],[-118.13657,34.23552],[-118.13592,34.23552],[-118.13592,34.23606],[-118.13527,34.23606],[-118.13527,34.2366],[-118.13462,34.2366],[-118.13462,34.23714],[-118.13396,34.23714],[-118.13396,34.23768],[-118.13331,34.23768],[-118.13331,34.23821],[-118.13266,34.23821],[-118.13266,34.23875],[-118.13201,34.23875],[-118.13201,34.23929],[-118.13136,34.23929],[-118.13136,34.23983],[-118.1307,34.23983],[-118.1307,34.24037],[-118.13005,34.24037],[-118.13005,34.24091],[-118.1294,34.24091],[-118.1294,34.24145],[-118.12875,34.24145],[-118.12875,34.24199],[-118.1281,34.24199],[-118.1281,34.24253],[-118.12745,34.24253],[-118.12745,34.24306],[-118.12679,34.24306],[-118.12679,34.2436],[-118.12614,34.2436],[-118.12614,34.24414],[-118.12549,34.24414],[-118.12549,34.2436],[-118.12549,34.24306],[-118.12614,34.24306],[-118.12614,34.24253],[-118.12679,34.24253],[-118.12679,34.24199],[-118.12745,34.24199],[-118.12745,34.24145],[-118.1281,34.24145],[-118.1281,34.24091],[-118.12875,34.24091],[-118.12875,34.24037],[-118.1294,34.24037],[-118.1294,34.23983],[-118.13005,34.23983],[-118.13005,34.23929],[-118.1307,34.23929],[-118.1307,34.23875],[-118.13136,34.23875],[-118.13136,34.23821],[-118.13201,34.23821],[-118.13201,34.23768],[-118.13266,34.23768],[-118.13266,34.23714],[-118.13331,34.23714],[-118.13331,34.2366],[-118.13396,34.2366],[-118.13396,34.23606],[-118.13462,34.23606],[-118.13462,34.23552],[-118.13527,34.23552],[-118.13527,34.23498],[-118.13592,34.23498],[-118.13592,34.23444],[-118.13657,34.23444],[-118.13657,34.2339],[-118.13722,34.2339],[-118.13722,34.23336],[-118.13787,34.23336],[-118.13787,34.23283],[-118.13853,34.23283],[-118.13853,34.23229],[-118.13918,34.23229],[-118.13918,34.23175],[-118.13983,34.23175],[-118.13983,34.23121],[-118.14048,34.23121],[-118.14048,34.23067],[-118.14113,34.23067],[-118.14113,34.23121],[-118.14113,34.23175],[-118.14048,34.23175]]]},"properties":{"id":663,"step":5,"cells":48,"cost":65860,"fuel_group":"shrub"}},{"type":"Feature","geometry":{"type":"Polygon","coordinates":[[[-118.15221,34.23121],[-118.15156,34.23121],[-118.15091,34.23121],[-118.15026,34.23121],[-118.14961,34.23121],[-118.14895,34.23121],[-118.1483,34.23121],[-118.14765,34.23121],[-118.147,34.23121],[-118.14635,34.23121],[-118.1457,34.23121],[-118.14504,34.23121],[-118.14439,34.23121],[-118.14374,34.23121],[-118.14309,34.23121],[-118.14244,34.23121],[-118.14178,34.23121],[-118.14113,34.23121],[-118.14048,34.23121],[-118.13983,34.23121],[-118.13918,34.23121],[-118.13853,34.23121],[-118.13787,34.23121],[-118.13722,34.23121],[-118.13657,34.23121],[-118.13592,34.23121],[-118.13527,34.23121],[-118.13462,34.23121],[-118.13396,34.23121],[-118.13331,34.23121],[-118.13266,34.23121],[-118.13201,34.23121],[-118.13136,34.23121],[-118.1307,34.23121],[-118.1307,34.23067],[-118.1307,34.23013],[-118.13136,34.23013],[-118.13201,34.23013],[-118.13266,34.23013],[-118.13331,34.23013],[-118.13396,34.23013],[-118.13462,34.23013],[-118.13527,34.23013],[-118.13592,34.23013],[-118.13657,34.23013],[-118.13722,34.23013],[-118.13787,34.23013],[-118.13853,34.23013],[-118.13918,34.23013],[-118.13983,34.23013],[-118.14048,34.23013],[-118.14113,34.23013],[-118.14178,34.23013],[-118.14244,34.23013],[-118.14309,34.23013],[-118.14374,34.23013],[-118.14439,34.23013],[-118.14504,34.23013],[-118.1457,34.23013],[-118.14635,34.23013],[-118.147,34.23013],[-118.14765,34.23013],[-118.1483,34.23013],[-118.14895,34.23013],[-118.14961,34.23013],[-118.15026,34.23013],[-118.15091,34.23013],[-118.15156,34.23013],[-118.15221,34.23013],[-118.15221,34.23067],[-118.15221,34.23121]]]},"properties":{"id":812,"step":6,"cells":66,"cost":91670,"fuel_group":"shrub"}},{"type":"Feature","geometry":{"type":"MultiPolygon","coordinates":[[[[-118.13266,34.22528],[-118.13266,34.22582],[-118.13201,34.22582],[-118.13201,34.22528],[-118.13201,34.22474],[-118.13266,34.22474],[-118.13266,34.2242],[-118.13331,34.2242],[-118.13331,34.22474],[-118.13331,34.22528],[-118.13266,34.22528]]],[[[-118.13136,34.22636],[-118.13136,34.2269],[-118.1307,34.2269],[-118.1307,34.22744],[-118.13005,34.22744],[-118.13005,34.22798],[-118.1294,34.22798],[-118.1294,34.22851],[-118.12875,34.22851],[-118.12875,34.22905],[-118.1281,34.22905],[-118.1281,34.22959],[-118.12745,34.22959],[-118.12745,34.23013],[-118.12679,34.23013],[-118.12679,34.23067],[-118.12614,34.23067],[-118.12614,34.23121],[-118.12549,34.23121],[-118.12549,34.23175],[-118.12484,34.23175],[-118.12484,34.23229],[-118.12419,34.23229],[-118.12419,34.23283],[-118.12353,34.23283],[-118.12353,34.23336],[-118.12288,34.23336],[-118.12288,34.2339],[-118.12223,34.2339],[-118.12223,34.23444],[-118.12158,34.23444],[-118.12158,34.23498],[-118.12093,34.23498],[-118.12093,34.23552],[-118.12028,34.23552],[-118.12028,34.23606],[-118.11962,34.23606],[-118.11962,34.2366],[-118.11897,34.2366],[-118.11897,34.23714],[-118.11832,34.23714],[-118.11832,34.23768],[-118.11767,34.23768],[-118.11767,34.23714],[-118.11767,34.2366],[-118.11832,34.2366],[-118.11832,34.23606],[-118.11897,34.23606],[-118.11897,34.23552],[-118.11962,34.23552],[-118.11962,34.23498],[-118.12028,34.23498],[-118.12028,34.23444],[-118.12093,34.23444],[-118.12093,34.2339],[-118.12158,34.2339],[-118.12158,34.23336],[-118.12223,34.23336],[-118.12223,34.23283],[-118.12288,34.23283],[-118.12288,34.23229],[-118.12353,34.23229],[-118.12353,34.23175],[-118.12419,34.23175],[-118.12419,34.23121],[-118.12484,34.23121],[-118.12484,34.23067],[-118.12549,34.23067],[-118.12549,34.23013],[-118.12614,34.23013],[-118.12614,34.22959],[-118.12679,34.22959],[-118.12679,34.22905],[-118.12745,34.22905],[-118.12745,34.22851],[-118.1281,34.22851],[-118.1281,34.22798],[-118.12875,34.22798],[-118.12875,34.22744],[-118.1294,34.22744],[-118.1294,34.2269],[-118.13005,34.2269],[-118.13005,34.22636],[-118.1307,34.22636],[-118.1307,34.22582],[-118.13136,34.22582],[-118.13201,34.22582],[-118.13201,34.22636],[-118.13136,34.22636]]]]},"properties":{"id":834,"step":7,"cells":47,"cost":68085,"fuel_group":"shrub"}},{"type":"Feature","geometry":{"type":"MultiPolygon","coordinates":[[[[-118.12745,34.24468],[-118.12745,34.24522],[-118.12679,34.24522],[-118.12679,34.24468],[-118.12614,34.24468],[-118.12614,34.24414],[-118.12549,34.24414],[-118.12549,34.2436],[-118.12484,34.2436],[-118.12484,34.24306],[-118.12419,34.24306],[-118.12419,34.24253],[-118.12353,34.24253],[-118.12353,34.24199],[-118.12288,34.24199],[-118.12288,34.24145],[-118.12223,34.24145],[-118.12223,34.24091],[-118.12223,34.24037],[-118.12288,34.24037],[-118.12288,34.24091],[-118.12353,34.24091],[-118.12353,34.24145],[-118.12419,34.24145],[-118.12419,34.24199],[-118.12484,34.24199],[-118.12484,34.24253],[-118.12549,34.24253],[-118.12549,34.24306],[-118.12614,34.24306],[-118.12614,34.2436],[-118.12679,34.2436],[-118.12679,34.24414],[-118.12745,34.24414],[-118.12745,34.24468]]],[[[-118.1281,34.24522],[-118.12875,34.24522],[-118.12875,34.24576],[-118.1294,34.24576],[-118.1294,34.2463],[-118.13005,34.2463],[-118.13005,34.24684],[-118.13005,34.24737],[-118.1294,34.24737],[-118.1294,34.24684],[-118.12875,34.24684],[-118.12875,34.2463],[-118.1281,34.2463],[-118.1281,34.24576],[-118.12745,34.24576],[-118.12745,34.24522],[-118.1281,34.24522]]]]},"properties":{"id":525,"step":8,"cells":23,"cost":31595,"fuel_group":"shrub"}},{"type":"Feature","geometry":{"type":"MultiPolygon","coordinates":[[[[-118.12484,34.19941],[-118.12484,34.19887],[-118.12484,34.19833],[-118.12549,34.19833],[-118.12549,34.19887],[-118.12549,34.19941],[-118.12484,34.19941]]],[[[-118.12223,34.20049],[-118.12288,34.20049],[-118.12288,34.20103],[-118.12223,34.20103],[-118.12223,34.20049]]],[[[-118.12223,34.20157],[-118.12223,34.2021],[-118.12158,34.2021],[-118.12158,34.20157],[-118.12158,34.20103],[-118.12223,34.20103],[-118.12223,34.20157]]],[[[-118.12028,34.20372],[-118.11962,34.20372],[-118.11962,34.20426],[-118.11897,34.20426],[-118.11897,34.2048],[-118.11832,34.2048],[-118.11832,34.20534],[-118.11767,34.20534],[-118.11767,34.20588],[-118.11702,34.20588],[-118.11702,34.20642],[-118.11636,34.20642],[-118.11636,34.20696],[-118.11571,34.20696],[-118.11571,34.20749],[-118.11506,34.20749],[-118.11506,34.20803],[-118.11441,34.20803],[-118.11441,34.20857],[-118.11376,34.20857],[-118.11376,34.20911],[-118.11311,34.20911],[-118.11245,34.20911],[-118.11245,34.20857],[-118.11311,34.20857],[-118.11311,34.20803],[-118.11376,34.20803],[-118.11376,34.20749],[-118.11441,34.20749],[-118.11441,34.20696],[-118.11506,34.20696],[-118.11506,34.20642],[-118.11571,34.20642],[-118.11571,34.20588],[-118.11636,34.20588],[-118.11636,34.20534],[-118.11702,34.20534],[-118.11702,34.2048],[-118.11767,34.2048],[-118.11767,34.20426],[-118.11832,34.20426],[-118.11832,34.20372],[-118.11897,34.20372],[-118.11897,34.20318],[-118.11962,34.20318],[-118.11962,34.20264],[-118.12028,34.20264],[-118.12028,34.2021],[-118.12093,34.2021],[-118.12093,34.20264],[-118.12093,34.20318],[-118.12028,34.20318],[-118.12028,34.20372]]],[[[-118.1118,34.21019],[-118.1118,34.21073],[-118.11115,34.21073],[-118.11115,34.21127],[-118.1105,34.21127],[-118.1105,34.21181],[-118.10985,34.21181],[-118.10985,34.21127],[-118.10985,34.21073],[-118.1105,34.21073],[-118.1105,34.21019],[-118.11115,34.21019],[-118.11115,34.20965],[-118.1118,34.20965],[-118.1118,34.20911],[-118.11245,34.20911],[-118.11245,34.20965],[-118.11245,34.21019],[-118.1118,34.21019]]]]},"properties":{"id":1400,"step":9,"cells":38,"cost":54290,"fuel_group":"shrub"}},{"type":"Feature","geometry":{"type":"Polygon","coordinates":[[[-118.17763,34.1924],[-118.17698,34.1924],[-118.17633,34.1924],[-118.17568,34.1924],[-118.17568,34.19186],[-118.17503,34.19186],[-118.17503,34.1924],[-118.17437,34.1924],[-118.17372,34.1924],[-118.17307,34.1924],[-118.17242,34.1924],[-118.17177,34.1924],[-118.17112,34.1924],[-118.17046,34.1924],[-118.16981,34.1924],[-118.16916,34.1924],[-118.16916,34.19186],[-118.16981,34.19186],[-118.16981,34.19132],[-118.17046,34.19132],[-118.17112,34.19132],[-118.17177,34.19132],[-118.17242,34.19132],[-118.17307,34.19132],[-118.17372,34.19132],[-118.17437,34.19132],[-118.17503,34.19132],[-118.17568,34.19132],[-118.17633,34.19132],[-118.17698,34.19132],[-118.17763,34.19132],[-118.17829,34.19132],[-118.17829,34.19186],[-118.17763,34.19186],[-118.17763,34.1924]]]},"properties":{"id":1608,"step":10,"cells":25,"cost":34265,"fuel_group":"grass_shrub"}},{"type":"Feature","geometry":{"type":"MultiPolygon","coordinates":[[[[-118.17307,34.17191],[-118.17307,34.17245],[-118.17307,34.17299],[-118.17307,34.17353],[-118.17307,34.17407],[-118.17307,34.17461],[-118.17307,34.17515],[-118.17307,34.17569],[-118.17307,34.17622],[-118.17307,34.17676],[-118.17307,34.1773],[-118.17307,34.17784],[-118.17307,34.17838],[-118.17307,34.17892],[-118.17242,34.17892],[-118.17242,34.17946],[-118.17307,34.17946],[-118.17307,34.18],[-118.17307,34.18054],[-118.17307,34.18108],[-118.17242,34.18108],[-118.17242,34.18162],[-118.17307,34.18162],[-118.17307,34.18216],[-118.17307,34.1827],[-118.17242,34.1827],[-118.17242,34.18216],[-118.17177,34.18216],[-118.17177,34.18162],[-118.17177,34.18108],[-118.17177,34.18054],[-118.17177,34.18],[-118.17177,34.17946],[-118.17177,34.17892],[-118.17177,34.17838],[-118.17242,34.17838],[-118.17242,34.17784],[-118.17177,34.17784],[-118.17177,34.1773],[-118.17177,34.17676],[-118.17177,34.17622],[-118.17177,34.17569],[-118.17177,34.17515],[-118.17177,34.17461],[-118.17242,34.17461],[-118.17242,34.17407],[-118.17177,34.17407],[-118.17177,34.17353],[-118.17177,34.17299],[-118.17177,34.17245],[-118.17177,34.17191],[-118.17177,34.17137],[-118.17177,34.17083],[-118.17177,34.17029],[-118.17242,34.17029],[-118.17307,34.17029],[-118.17307,34.17083],[-118.17307,34.17137],[-118.17307,34.17191]]],[[[-118.17242,34.18809],[-118.17177,34.18809],[-118.17177,34.18755],[-118.17242,34.18755],[-118.17242,34.18701],[-118.17242,34.18647],[-118.17307,34.18647],[-118.17307,34.18701],[-118.17307,34.18755],[-118.17307,34.18809],[-118.17242,34.18809]]],[[[-118.17307,34.18377],[-118.17307,34.18431],[-118.17307,34.18485],[-118.17242,34.18485],[-118.17242,34.18431],[-118.17177,34.18431],[-118.17177,34.18377],[-118.17177,34.18323],[-118.17177,34.1827],[-118.17242,34.1827],[-118.17242,34.18323],[-118.17307,34.18323],[-118.17307,34.18377]]]]},"properties":{"id":1810,"step":11,"cells":51,"cost":46725,"fuel_group":"grass"}},{"type":"Feature","geometry":{"type":"MultiPolygon","coordinates":[[[[-118.16069,34.21342],[-118.16069,34.21396],[-118.16004,34.21396],[-118.15938,34.21396],[-118.15938,34.21342],[-118.15873,34.21342],[-118.15873,34.21289],[-118.15938,34.21289],[-118.16004,34.21289],[-118.16004,34.21342],[-118.16069,34.21342]]],[[[-118.16199,34.2145],[-118.16199,34.21504],[-118.16199,34.21558],[-118.16134,34.21558],[-118.16134,34.21504],[-118.16069,34.21504],[-118.16069,34.2145],[-118.16069,34.21396],[-118.16134,34.21396],[-118.16134,34.2145],[-118.16199,34.2145]]],[[[-118.16395,34.21612],[-118.16395,34.21666],[-118.1646,34.21666],[-118.1646,34.2172],[-118.16525,34.2172],[-118.16525,34.21774],[-118.16525,34.21827],[-118.1646,34.21827],[-118.1646,34.21774],[-118.16395,34.21774],[-118.16395,34.2172],[-118.16329,34.2172],[-118.16329,34.21666],[-118.16264,34.21666],[-118.16264,34.21612],[-118.16264,34.21558],[-118.16329,34.21558],[-118.16329,34.21612],[-118.16395,34.21612]]],[[[-118.15091,34.20534],[-118.15091,34.20588],[-118.15156,34.20588],[-118.15156,34.20642],[-118.15221,34.20642],[-118.15221,34.20696],[-118.15287,34.20696],[-118.15287,34.20749],[-118.15352,34.20749],[-118.15352,34.20803],[-118.15417,34.20803],[-118.15417,34.20857],[-118.15352,34.20857],[-118.15287,34.20857],[-118.15287,34.20803],[-118.15221,34.20803],[-118.15221,34.20749],[-118.15156,34.20749],[-118.15156,34.20696],[-118.15091,34.20696],[-118.15091,34.20642],[-118.15026,34.20642],[-118.15026,34.20588],[-118.14961,34.20588],[-118.14961,34.20534],[-118.14961,34.2048],[-118.15026,34.2048],[-118.15026,34.20534],[-118.15091,34.20534]]]]},"properties":{"id":1256,"step":12,"cells":29,"cost":42275,"fuel_group":"shrub"}},{"type":"Feature","geometry":{"type":"Polygon","coordinates":[[[-118.13266,34.23175],[-118.13266,34.23229],[-118.13201,34.23229],[-118.13201,34.23283],[-118.13136,34.23283],[-118.13136,34.23336],[-118.1307,34.23336],[-118.1307,34.2339],[-118.13005,34.2339],[-118.13005,34.23444],[-118.1294,34.23444],[-118.1294,34.23498],[-118.12875,34.23498],[-118.12875,34.23552],[-118.1281,34.23552],[-118.1281,34.23606],[-118.12745,34.23606],[-118.12745,34.2366],[-118.12679,34.2366],[-118.12679,34.23714],[-118.12614,34.23714],[-118.12614,34.23768],[-118.12549,34.23768],[-118.12549,34.23821],[-118.12484,34.23821],[-118.12484,34.23875],[-118.12419,34.23875],[-118.12419,34.23929],[-118.12353,34.23929],[-118.12353,34.23983],[-118.12288,34.23983],[-118.12288,34.24037],[-118.12223,34.24037],[-118.12223,34.24091],[-118.12158,34.24091],[-118.12158,34.24145],[-118.12093,34.24145],[-118.12093,34.24199],[-118.12028,34.24199],[-118.12028,34.24253],[-118.11962,34.24253],[-118.11962,34.24306],[-118.11897,34.24306],[-118.11897,34.2436],[-118.11832,34.2436],[-118.11832,34.24414],[-118.11767,34.24414],[-118.11767,34.2436],[-118.11767,34.24306],[-118.11832,34.24306],[-118.11832,34.24253],[-118.11897,34.24253],[-118.11897,34.24199],[-118.11962,34.24199],[-118.11962,34.24145],[-118.12028,34.24145],[-118.12028,34.24091],[-118.12093,34.24091],[-118.12093,34.24037],[-118.12158,34.24037],[-118.12158,34.23983],[-118.12223,34.23983],[-118.12223,34.23929],[-118.12288,34.23929],[-118.12288,34.23875],[-118.12353,34.23875],[-118.12353,34.23821],[-118.12419,34.23821],[-118.12419,34.23768],[-118.12484,34.23768],[-118.12484,34.23714],[-118.12549,34.23714],[-118.12549,34.2366],[-118.12614,34.2366],[-118.12614,34.23606],[-118.12679,34.23606],[-118.12679,34.23552],[-118.12745,34.23552],[-118.12745,34.23498],[-118.1281,34.23498],[-118.1281,34.23444],[-118.12875,34.23444],[-118.12875,34.2339],[-118.1294,34.2339],[-118.1294,34.23336],[-118.13005,34.23336],[-118.13005,34.23283],[-118.1307,34.23283],[-118.1307,34.23229],[-118.13136,34.23229],[-118.13136,34.23175],[-118.13201,34.23175],[-118.13201,34.23121],[-118.13266,34.23121],[-118.13266,34.23067],[-118.13331,34.23067],[-118.13331,34.23121],[-118.13331,34.23175],[-118.13266,34.23175]]]},"properties":{"id":671,"step":13,"cells":48,"cost":71200,"fuel_group":"grass_shrub"}},{"type":"Feature","geometry":{"type":"Polygon","coordinates":[[[-118.14439,34.23768],[-118.14374,34.23768],[-118.14309,34.23768],[-118.14244,34.23768],[-118.14178,34.23768],[-118.14113,34.23768],[-118.14048,34.23768],[-118.13983,34.23768],[-118.13918,34.23768],[-118.13853,34.23768],[-118.13787,34.23768],[-118.13722,34.23768],[-118.13657,34.23768],[-118.13592,34.23768],[-118.13527,34.23768],[-118.13462,34.23768],[-118.13396,34.23768],[-118.13331,34.23768],[-118.13266,34.23768],[-118.13201,34.23768],[-118.13136,34.23768],[-118.1307,34.23768],[-118.13005,34.23768],[-118.1294,34.23768],[-118.12875,34.23768],[-118.1281,34.23768],[-118.12745,34.23768],[-118.12679,34.23768],[-118.12614,34.23768],[-118.12549,34.23768],[-118.12484,34.23768],[-118.12419,34.23768],[-118.12353,34.23768],[-118.12288,34.23768],[-118.12288,34.23714],[-118.12288,34.2366],[-118.12353,34.2366],[-118.12419,34.2366],[-118.12484,34.2366],[-118.12549,34.2366],[-118.12614,34.2366],[-118.12679,34.2366],[-118.12745,34.2366],[-118.1281,34.2366],[-118.12875,34.2366],[-118.1294,34.2366],[-118.13005,34.2366],[-118.1307,34.2366],[-118.13136,34.2366],[-118.13201,34.2366],[-118.13266,34.2366],[-118.13331,34.2366],[-118.13396,34.2366],[-118.13462,34.2366],[-118.13527,34.2366],[-118.13592,34.2366],[-118.13657,34.2366],[-118.13722,34.2366],[-118.13787,34.2366],[-118.13853,34.2366],[-118.13918,34.2366],[-118.13983,34.2366],[-118.14048,34.2366],[-118.14113,34.2366],[-118.14178,34.2366],[-118.14244,34.2366],[-118.14309,34.2366],[-118.14374,34.2366],[-118.14439,34.2366],[-118.14439,34.23714],[-118.14439,34.23768]]]},"properties":{"id":660,"step":14,"cells":66,"cost":95230,"fuel_group":"grass_shrub"}},{"type":"Feature","geometry":{"type":"MultiPolygon","coordinates":[[[[-118.16395,34.20426],[-118.1646,34.20426],[-118.16525,34.20426],[-118.1659,34.20426],[-118.16655,34.20426],[-118.1672,34.20426],[-118.16786,34.20426],[-118.16786,34.2048],[-118.16786,34.20534],[-118.1672,34.20534],[-118.16655,34.20534],[-118.1659,34.20534],[-118.16525,34.20534],[-118.1646,34.20534],[-118.16395,34.20534],[-118.16329,34.20534],[-118.16264,34.20534],[-118.16199,34.20534],[-118.16199,34.2048],[-118.16199,34.20426],[-118.16264,34.20426],[-118.16329,34.20426],[-118.16395,34.20426]]],[[[-118.15417,34.20426],[-118.15482,34.20426],[-118.15547,34.20426],[-118.15612,34.20426],[-118.15612,34.2048],[-118.15547,34.2048],[-118.15547,34.20534],[-118.15482,34.20534],[-118.15417,34.20534],[-118.15352,34.20534],[-118.15287,34.20534],[-118.15221,34.20534],[-118.15156,34.20534],[-118.15091,34.20534],[-118.15091,34.2048],[-118.15026,34.2048],[-118.15026,34.20426],[-118.15091,34.20426],[-118.15156,34.20426],[-118.15221,34.20426],[-118.15287,34.20426],[-118.15352,34.20426],[-118.15417,34.20426]]],[[[-118.16004,34.2048],[-118.16069,34.2048],[-118.16134,34.2048],[-118.16134,34.20534],[-118.16069,34.20534],[-118.16004,34.20534],[-118.16004,34.2048]]],[[[-118.15612,34.20534],[-118.15612,34.2048],[-118.15678,34.2048],[-118.15743,34.2048],[-118.15808,34.2048],[-118.15808,34.20534],[-118.15743,34.20534],[-118.15678,34.20534],[-118.15612,34.20534]]],[[[-118.14961,34.2048],[-118.14895,34.2048],[-118.14895,34.20426],[-118.14961,34.20426],[-118.14961,34.2048]]],[[[-118.14765,34.20426],[-118.1483,34.20426],[-118.1483,34.2048],[-118.1483,34.20534],[-118.14765,34.20534],[-118.14765,34.2048],[-118.147,34.2048],[-118.147,34.20426],[-118.14765,34.20426]]],[[[-118.15026,34.2048],[-118.15026,34.20534],[-118.14961,34.20534],[-118.14961,34.2048],[-118.15026,34.2048]]],[[[-118.147,34.20534],[-118.14635,34.20534],[-118.14635,34.2048],[-118.147,34.2048],[-118.147,34.20534]]]]},"properties":{"id":1383,"step":15,"cells":45,"cost":67195,"fuel_group":"grass_shrub"}},{"type":"Feature","geometry":{"type":"Polygon","coordinates":[[[-118.14048,34.23821],[-118.14048,34.23875],[-118.13983,34.23875],[-118.13983,34.23929],[-118.13918,34.23929],[-118.13918,34.23983],[-118.13853,34.23983],[-118.13853,34.24037],[-118.13787,34.24037],[-118.13787,34.24091],[-118.13722,34.24091],[-118.13722,34.24145],[-118.13657,34.24145],[-118.13657,34.24199],[-118.13592,34.24199],[-118.13592,34.24253],[-118.13527,34.24253],[-118.13527,34.24306],[-118.13462,34.24306],[-118.13462,34.2436],[-118.13396,34.2436],[-118.13396,34.24414],[-118.13331,34.24414],[-118.13331,34.24468],[-118.13266,34.24468],[-118.13266,34.24522],[-118.13201,34.24522],[-118.13201,34.24576],[-118.13136,34.24576],[-118.13136,34.2463],[-118.1307,34.2463],[-118.1307,34.24684],[-118.13005,34.24684],[-118.13005,34.24737],[-118.1294,34.24737],[-118.1294,34.24791],[-118.12875,34.24791],[-118.12875,34.24845],[-118.1281,34.24845],[-118.1281,34.24899],[-118.12745,34.24899],[-118.12745,34.24953],[-118.12679,34.24953],[-118.12679,34.25007],[-118.12614,34.25007],[-118.12614,34.25061],[-118.12549,34.25061],[-118.12549,34.25007],[-118.12549,34.24953],[-118.12614,34.24953],[-118.12614,34.24899],[-118.12679,34.24899],[-118.12679,34.24845],[-118.12745,34.24845],[-118.12745,34.24791],[-118.1281,34.24791],[-118.1281,34.24737],[-118.12875,34.24737],[-118.12875,34.24684],[-118.1294,34.24684],[-118.1294,34.2463],[-118.13005,34.2463],[-118.13005,34.24576],[-118.1307,34.24576],[-118.1307,34.24522],[-118.13136,34.24522],[-118.13136,34.24468],[-118.13201,34.24468],[-118.13201,34.24414],[-118.13266,34.24414],[-118.13266,34.2436],[-118.13331,34.2436],[-118.13331,34.24306],[-118.13396,34.24306],[-118.13396,34.24253],[-118.13462,34.24253],[-118.13462,34.24199],[-118.13527,34.24199],[-118.13527,34.24145],[-118.13592,34.24145],[-118.13592,34.24091],[-118.13657,34.24091],[-118.13657,34.24037],[-118.13722,34.24037],[-118.13722,34.23983],[-118.13787,34.23983],[-118.13787,34.23929],[-118.13853,34.23929],[-118.13853,34.23875],[-118.13918,34.23875],[-118.13918,34.23821],[-118.13983,34.23821],[-118.13983,34.23768],[-118.14048,34.23768],[-118.14048,34.23714],[-118.14113,34.23714],[-118.14113,34.23768],[-118.14113,34.23821],[-118.14048,34.23821]]]},"properties":{"id":520,"step":16,"cells":48,"cost":64080,"fuel_group":"grass_shrub"}},{"type":"Feature","geometry":{"type":"Polygon","coordinates":[[[-118.1483,34.23175],[-118.1483,34.23229],[-118.14765,34.23229],[-118.14765,34.23283],[-118.147,34.23283],[-118.147,34.23336],[-118.14635,34.23336],[-118.14635,34.2339],[-118.1457,34.2339],[-118.1457,34.23444],[-118.14504,34.23444],[-118.14504,34.23498],[-118.14439,34.23498],[-118.14439,34.23552],[-118.14374,34.23552],[-118.14374,34.23606],[-118.14309,34.23606],[-118.14309,34.2366],[-118.14244,34.2366],[-118.14244,34.23714],[-118.14178,34.23714],[-118.14178,34.23768],[-118.14113,34.23768],[-118.14113,34.23821],[-118.14048,34.23821],[-118.14048,34.23875],[-118.13983,34.23875],[-118.13983,34.23929],[-118.13918,34.23929],[-118.13918,34.23983],[-118.13853,34.23983],[-118.13853,34.24037],[-118.13787,34.24037],[-118.13787,34.24091],[-118.13722,34.24091],[-118.13722,34.24145],[-118.13657,34.24145],[-118.13657,34.24199],[-118.13592,34.24199],[-118.13592,34.24253],[-118.13527,34.24253],[-118.13527,34.24306],[-118.13462,34.24306],[-118.13462,34.2436],[-118.13396,34.2436],[-118.13396,34.24414],[-118.13331,34.24414],[-118.13331,34.2436],[-118.13331,34.24306],[-118.13396,34.24306],[-118.13396,34.24253],[-118.13462,34.24253],[-118.13462,34.24199],[-118.13527,34.24199],[-118.13527,34.24145],[-118.13592,34.24145],[-118.13592,34.24091],[-118.13657,34.24091],[-118.13657,34.24037],[-118.13722,34.24037],[-118.13722,34.23983],[-118.13787,34.23983],[-118.13787,34.23929],[-118.13853,34.23929],[-118.13853,34.23875],[-118.13918,34.23875],[-118.13918,34.23821],[-118.13983,34.23821],[-118.13983,34.23768],[-118.14048,34.23768],[-118.14048,34.23714],[-118.14113,34.23714],[-118.14113,34.2366],[-118.14178,34.2366],[-118.14178,34.23606],[-118.14244,34.23606],[-118.14244,34.23552],[-118.14309,34.23552],[-118.14309,34.23498],[-118.14374,34.23498],[-118.14374,34.23444],[-118.14439,34.23444],[-118.14439,34.2339],[-118.14504,34.2339],[-118.14504,34.23336],[-118.1457,34.23336],[-118.1457,34.23283],[-118.14635,34.23283],[-118.14635,34.23229],[-118.147,34.23229],[-118.147,34.23175],[-118.14765,34.23175],[-118.14765,34.23121],[-118.1483,34.23121],[-118.1483,34.23067],[-118.14895,34.23067],[-118.14895,34.23121],[-118.14895,34.23175],[-118.1483,34.23175]]]},"properties":{"id":659,"step":17,"cells":48,"cost":63190,"fuel_group":"grass_shrub"}},{"type":"Feature","geometry":{"type":"Polygon","coordinates":[[[-118.1092,34.20588],[-118.1092,34.20642],[-118.10854,34.20642],[-118.10854,34.20696],[-118.10789,34.20696],[-118.10789,34.20749],[-118.10724,34.20749],[-118.10724,34.20803],[-118.10659,34.20803],[-118.10659,34.20857],[-118.10594,34.20857],[-118.10594,34.20911],[-118.10528,34.20911],[-118.10528,34.20965],[-118.10463,34.20965],[-118.10463,34.21019],[-118.10398,34.21019],[-118.10398,34.21073],[-118.10333,34.21073],[-118.10333,34.21127],[-118.10268,34.21127],[-118.10268,34.21181],[-118.10203,34.21181],[-118.10203,34.21235],[-118.10137,34.21235],[-118.10137,34.21289],[-118.10072,34.21289],[-118.10072,34.21342],[-118.10007,34.21342],[-118.10007,34.21396],[-118.09942,34.21396],[-118.09942,34.2145],[-118.09877,34.2145],[-118.09877,34.21504],[-118.09811,34.21504],[-118.09811,34.21558],[-118.09746,34.21558],[-118.09746,34.21612],[-118.09681,34.21612],[-118.09681,34.21666],[-118.09616,34.21666],[-118.09616,34.2172],[-118.09551,34.2172],[-118.09551,34.21774],[-118.09486,34.21774],[-118.09486,34.21827],[-118.0942,34.21827],[-118.0942,34.21774],[-118.0942,34.2172],[-118.09486,34.2172],[-118.09486,34.21666],[-118.09551,34.21666],[-118.09551,34.21612],[-118.09616,34.21612],[-118.09616,34.21558],[-118.09681,34.21558],[-118.09681,34.21504],[-118.09746,34.21504],[-118.09746,34.2145],[-118.09811,34.2145],[-118.09811,34.21396],[-118.09877,34.21396],[-118.09877,34.21342],[-118.09942,34.21342],[-118.09942,34.21289],[-118.10007,34.21289],[-118.10007,34.21235],[-118.10072,34.21235],[-118.10072,34.21181],[-118.10137,34.21181],[-118.10137,34.21127],[-118.10203,34.21127],[-118.10203,34.21073],[-118.10268,34.21073],[-118.10268,34.21019],[-118.10333,34.21019],[-118.10333,34.20965],[-118.10398,34.20965],[-118.10398,34.20911],[-118.10463,34.20911],[-118.10463,34.20857],[-118.10528,34.20857],[-118.10528,34.20803],[-118.10594,34.20803],[-118.10594,34.20749],[-118.10659,34.20749],[-118.10659,34.20696],[-118.10724,34.20696],[-118.10724,34.20642],[-118.10789,34.20642],[-118.10789,34.20588],[-118.10854,34.20588],[-118.10854,34.20534],[-118.1092,34.20534],[-118.1092,34.2048],[-118.10985,34.2048],[-118.10985,34.20534],[-118.10985,34.20588],[-118.1092,34.20588]]]},"properties":{"id":1313,"step":18,"cells":48,"cost":72980,"fuel_group":"shrub"}},{"type":"Feature","geometry":{"type":"Polygon","coordinates":[[[-118.11506,34.19779],[-118.11571,34.19779],[-118.11636,34.19779],[-118.11702,34.19779],[-118.11767,34.19779],[-118.11832,34.19779],[-118.11897,34.19779],[-118.11962,34.19779],[-118.12028,34.19779],[-118.12028,34.19833],[-118.12093,34.19833],[-118.12093,34.19887],[-118.12028,34.19887],[-118.11962,34.19887],[-118.11897,34.19887],[-118.11832,34.19887],[-118.11767,34.19887],[-118.11702,34.19887],[-118.11636,34.19887],[-118.11571,34.19887],[-118.11506,34.19887],[-118.11441,34.19887],[-118.11376,34.19887],[-118.11311,34.19887],[-118.11245,34.19887],[-118.1118,34.19887],[-118.11115,34.19887],[-118.1105,34.19887],[-118.10985,34.19887],[-118.1092,34.19887],[-118.10854,34.19887],[-118.10789,34.19887],[-118.10724,34.19887],[-118.10659,34.19887],[-118.10594,34.19887],[-118.10528,34.19887],[-118.10463,34.19887],[-118.10398,34.19887],[-118.10333,34.19887],[-118.10333,34.19833],[-118.10268,34.19833],[-118.10268,34.19887],[-118.10203,34.19887],[-118.10137,34.19887],[-118.10072,34.19887],[-118.10007,34.19887],[-118.09942,34.19887],[-118.09942,34.19833],[-118.09942,34.19779],[-118.10007,34.19779],[-118.10007,34.19833],[-118.10072,34.19833],[-118.10072,34.19779],[-118.10137,34.19779],[-118.10203,34.19779],[-118.10268,34.19779],[-118.10333,34.19779],[-118.10398,34.19779],[-118.10463,34.19779],[-118.10528,34.19779],[-118.10594,34.19779],[-118.10659,34.19779],[-118.10724,34.19779],[-118.10789,34.19779],[-118.10854,34.19779],[-118.1092,34.19779],[-118.10985,34.19779],[-118.1105,34.19779],[-118.11115,34.19779],[-118.1118,34.19779],[-118.11245,34.19779],[-118.11311,34.19779],[-118.11376,34.19779],[-118.11441,34.19779],[-118.11506,34.19779]]]},"properties":{"id":1505,"step":19,"cells":63,"cost":84105,"fuel_group":"shrub"}},{"type":"Feature","geometry":{"type":"MultiPolygon","coordinates":[[[[-118.18024,34.18539],[-118.18024,34.18593],[-118.17959,34.18593],[-118.17959,34.18539],[-118.18024,34.18539]]],[[[-118.17763,34.18863],[-118.17698,34.18863],[-118.17698,34.18917],[-118.17633,34.18917],[-118.17568,34.18917],[-118.17568,34.18863],[-118.17633,34.18863],[-118.17633,34.18809],[-118.17698,34.18809],[-118.17698,34.18755],[-118.17763,34.18755],[-118.17763,34.18701],[-118.17829,34.18701],[-118.17829,34.18755],[-118.17829,34.18809],[-118.17763,34.18809],[-118.17763,34.18863]]],[[[-118.17503,34.18917],[-118.17568,34.18917],[-118.17568,34.1897],[-118.17503,34.1897],[-118.17503,34.18917]]],[[[-118.17503,34.19078],[-118.17437,34.19078],[-118.17437,34.19132],[-118.17372,34.19132],[-118.17372,34.19186],[-118.17307,34.19186],[-118.17307,34.1924],[-118.17242,34.1924],[-118.17242,34.19294],[-118.17177,34.19294],[-118.17177,34.19348],[-118.17112,34.19348],[-118.17112,34.19402],[-118.17046,34.19402],[-118.17046,34.19456],[-118.16981,34.19456],[-118.16981,34.1951],[-118.16916,34.1951],[-118.16916,34.19564],[-118.16851,34.19564],[-118.16851,34.1951],[-118.16851,34.19456],[-118.16916,34.19456],[-118.16916,34.19402],[-118.16981,34.19402],[-118.16981,34.19348],[-118.17046,34.19348],[-118.17046,34.19294],[-118.17112,34.19294],[-118.17112,34.1924],[-118.17177,34.1924],[-118.17177,34.19186],[-118.17242,34.19186],[-118.17242,34.19132],[-118.17307,34.19132],[-118.17307,34.19078],[-118.17372,34.19078],[-118.17372,34.19024],[-118.17437,34.19024],[-118.17437,34.1897],[-118.17503,34.1897],[-118.17503,34.19024],[-118.17503,34.19078]]],[[[-118.16851,34.19617],[-118.16786,34.19617],[-118.16786,34.19564],[-118.16851,34.19564],[-118.16851,34.19617]]],[[[-118.16655,34.19617],[-118.1672,34.19617],[-118.16786,34.19617],[-118.16786,34.19671],[-118.1672,34.19671],[-118.16655,34.19671],[-118.16655,34.19617]]],[[[-118.16525,34.19725],[-118.1659,34.19725],[-118.16655,34.19725],[-118.16655,34.19779],[-118.1659,34.19779],[-118.16525,34.19779],[-118.16525,34.19725]]],[[[-118.1646,34.19833],[-118.1646,34.19779],[-118.16525,34.19779],[-118.16525,34.19833],[-118.1646,34.19833]]]]},"properties":{"id":1613,"step":20,"cells":35,"cost":50285,"fuel_group":"grass_shrub"}},{"type":"Feature","geometry":{"type":"Polygon","coordinates":[[[-118.06357,34.18917],[-118.06357,34.1897],[-118.06357,34.19024],[-118.06357,34.19078],[-118.06357,34.19132],[-118.06357,34.19186],[-118.06357,34.1924],[-118.06357,34.19294],[-118.06357,34.19348],[-118.06357,34.19402],[-118.06357,34.19456],[-118.06357,34.1951],[-118.06357,34.19564],[-118.06357,34.19617],[-118.06357,34.19671],[-118.06292,34.19671],[-118.06227,34.19671],[-118.06227,34.19617],[-118.06227,34.19564],[-118.06227,34.1951],[-118.06227,34.19456],[-118.06227,34.19402],[-118.06227,34.19348],[-118.06227,34.19294],[-118.06227,34.1924],[-118.06227,34.19186],[-118.06227,34.19132],[-118.06227,34.19078],[-118.06227,34.19024],[-118.06227,34.1897],[-118.06227,34.18917],[-118.06227,34.18863],[-118.06227,34.18809],[-118.06227,34.18755],[-118.06292,34.18755],[-118.06357,34.18755],[-118.06357,34.18809],[-118.06357,34.18863],[-118.06357,34.18917]]]},"properties":{"id":1656,"step":21,"cells":34,"cost":47170,"fuel_group":"shrub"}},{"type":"Feature","geometry":{"type":"Polygon","coordinates":[[[-118.06683,34.1897],[-118.06618,34.1897],[-118.06618,34.19024],[-118.06553,34.19024],[-118.06553,34.19078],[-118.06487,34.19078],[-118.06487,34.19132],[-118.06422,34.19132],[-118.06422,34.19186],[-118.06357,34.19186],[-118.06357,34.1924],[-118.06292,34.1924],[-118.06292,34.19294],[-118.06227,34.19294],[-118.06227,34.19348],[-118.06161,34.19348],[-118.06161,34.19402],[-118.06096,34.19402],[-118.06096,34.19456],[-118.06031,34.19456],[-118.06031,34.1951],[-118.05966,34.1951],[-118.05966,34.19564],[-118.05901,34.19564],[-118.05901,34.1951],[-118.05901,34.19456],[-118.05966,34.19456],[-118.05966,34.19402],[-118.06031,34.19402],[-118.06031,34.19348],[-118.06096,34.19348],[-118.06096,34.19294],[-118.06161,34.19294],[-118.06161,34.1924],[-118.06227,34.1924],[-118.06227,34.19186],[-118.06292,34.19186],[-118.06292,34.19132],[-118.06357,34.19132],[-118.06357,34.19078],[-118.06422,34.19078],[-118.06422,34.19024],[-118.06487,34.19024],[-118.06487,34.1897],[-118.06553,34.1897],[-118.06553,34.18917],[-118.06618,34.18917],[-118.06618,34.18863],[-118.06683,34.18863],[-118.06683,34.18917],[-118.06683,34.1897]]]},"properties":{"id":1660,"step":22,"cells":24,"cost":34710,"fuel_group":"shrub"}},{"type":"Feature","geometry":{"type":"MultiPolygon","coordinates":[[[[-118.10137,34.19294],[-118.10072,34.19294],[-118.10072,34.1924],[-118.10137,34.1924],[-118.10137,34.19186],[-118.10203,34.19186],[-118.10203,34.1924],[-118.10203,34.19294],[-118.10137,34.19294]]],[[[-118.10072,34.19348],[-118.10072,34.19402],[-118.10007,34.19402],[-118.09942,34.19402],[-118.09942,34.19348],[-118.10007,34.19348],[-118.10007,34.19294],[-118.10072,34.19294],[-118.10072,34.19348]]],[[[-118.09877,34.1951],[-118.09877,34.19564],[-118.09811,34.19564],[-118.09811,34.1951],[-118.09811,34.19456],[-118.09877,34.19456],[-118.09877,34.19402],[-118.09942,34.19402],[-118.09942,34.19456],[-118.09942,34.1951],[-118.09877,34.1951]]],[[[-118.09681,34.19725],[-118.09616,34.19725],[-118.09616,34.19779],[-118.09551,34.19779],[-118.09551,34.19833],[-118.09486,34.19833],[-118.09486,34.19779],[-118.09486,34.19725],[-118.09551,34.19725],[-118.09551,34.19671],[-118.09616,34.19671],[-118.09616,34.19617],[-118.09681,34.19617],[-118.09681,34.19564],[-118.09746,34.19564],[-118.09811,34.19564],[-118.09811,34.19617],[-118.09746,34.19617],[-118.09746,34.19671],[-118.09681,34.19671],[-118.09681,34.19725]]],[[[-118.09486,34.19833],[-118.09486,34.19887],[-118.0942,34.19887],[-118.0942,34.19833],[-118.09486,34.19833]]],[[[-118.09225,34.19995],[-118.09225,34.19941],[-118.0929,34.19941],[-118.0929,34.19995],[-118.0929,34.20049],[-118.09225,34.20049],[-118.09225,34.19995]]],[[[-118.0916,34.20103],[-118.0916,34.20157],[-118.09095,34.20157],[-118.09095,34.2021],[-118.09029,34.2021],[-118.09029,34.20264],[-118.08964,34.20264],[-118.08964,34.20318],[-118.08899,34.20318],[-118.08899,34.20372],[-118.08834,34.20372],[-118.08834,34.20426],[-118.08769,34.20426],[-118.08769,34.2048],[-118.08703,34.2048],[-118.08703,34.20534],[-118.08638,34.20534],[-118.08638,34.2048],[-118.08638,34.20426],[-118.08703,34.20426],[-118.08703,34.20372],[-118.08769,34.20372],[-118.08769,34.20318],[-118.08834,34.20318],[-118.08834,34.20264],[-118.08899,34.20264],[-118.08899,34.2021],[-118.08964,34.2021],[-118.08964,34.20157],[-118.09029,34.20157],[-118.09029,34.20103],[-118.09095,34.20103],[-118.09095,34.20049],[-118.0916,34.20049],[-118.0916,34.20103]]]]},"properties":{"id":1527,"step":23,"cells":38,"cost":48950,"fuel_group":"grass_shrub"}},{"type":"Feature","geometry":{"type":"Polygon","coordinates":[[[-118.1457,34.2339],[-118.14635,34.2339],[-118.14635,34.23444],[-118.147,34.23444],[-118.147,34.23498],[-118.14765,34.23498],[-118.14765,34.23552],[-118.1483,34.23552],[-118.1483,34.23606],[-118.14895,34.23606],[-118.14895,34.2366],[-118.14961,34.2366],[-118.14961,34.23714],[-118.14961,34.23768],[-118.14895,34.23768],[-118.14895,34.23714],[-118.1483,34.23714],[-118.1483,34.2366],[-118.14765,34.2366],[-118.14765,34.23606],[-118.147,34.23606],[-118.147,34.23552],[-118.14635,34.23552],[-118.14635,34.23498],[-118.1457,34.23498],[-118.1457,34.23444],[-118.14504,34.23444],[-118.14504,34.2339],[-118.14439,34.2339],[-118.14439,34.23336],[-118.14374,34.23336],[-118.14374,34.23283],[-118.14309,34.23283],[-118.14309,34.23229],[-118.14244,34.23229],[-118.14244,34.23175],[-118.14178,34.23175],[-118.14178,34.23121],[-118.14113,34.23121],[-118.14113,34.23067],[-118.14048,34.23067],[-118.14048,34.23013],[-118.13983,34.23013],[-118.13983,34.22959],[-118.13918,34.22959],[-118.13918,34.22905],[-118.13853,34.22905],[-118.13853,34.22851],[-118.13787,34.22851],[-118.13787,34.22798],[-118.13722,34.22798],[-118.13722,34.22744],[-118.13657,34.22744],[-118.13657,34.2269],[-118.13592,34.2269],[-118.13592,34.22636],[-118.13527,34.22636],[-118.13527,34.22582],[-118.13462,34.22582],[-118.13462,34.22528],[-118.13396,34.22528],[-118.13396,34.22474],[-118.13396,34.2242],[-118.13462,34.2242],[-118.13462,34.22474],[-118.13527,34.22474],[-118.13527,34.22528],[-118.13592,34.22528],[-118.13592,34.22582],[-118.13657,34.22582],[-118.13657,34.22636],[-118.13722,34.22636],[-118.13722,34.2269],[-118.13787,34.2269],[-118.13787,34.22744],[-118.13853,34.22744],[-118.13853,34.22798],[-118.13918,34.22798],[-118.13918,34.22851],[-118.13983,34.22851],[-118.13983,34.22905],[-118.14048,34.22905],[-118.14048,34.22959],[-118.14113,34.22959],[-118.14113,34.23013],[-118.14178,34.23013],[-118.14178,34.23067],[-118.14244,34.23067],[-118.14244,34.23121],[-118.14309,34.23121],[-118.14309,34.23175],[-118.14374,34.23175],[-118.14374,34.23229],[-118.14439,34.23229],[-118.14439,34.23283],[-118.14504,34.23283],[-118.14504,34.23336],[-118.1457,34.23336],[-118.1457,34.2339]]]},"properties":{"id":816,"step":24,"cells":48,"cost":64080,"fuel_group":"shrub"}},{"type":"Feature","geometry":{"type":"MultiPolygon","coordinates":[[[[-118.09681,34.19294],[-118.09681,34.19348],[-118.09746,34.19348],[-118.09746,34.19402],[-118.09681,34.19402],[-118.09616,34.19402],[-118.09616,34.19348],[-118.09551,34.19348],[-118.09551,34.19294],[-118.09486,34.19294],[-118.09486,34.1924],[-118.0942,34.1924],[-118.0942,34.19186],[-118.09355,34.19186],[-118.09355,34.19132],[-118.0929,34.19132],[-118.0929,34.19078],[-118.09225,34.19078],[-118.09225,34.19024],[-118.0916,34.19024],[-118.0916,34.1897],[-118.09095,34.1897],[-118.09095,34.18917],[-118.09029,34.18917],[-118.09029,34.18863],[-118.08964,34.18863],[-118.08964,34.18809],[-118.08899,34.18809],[-118.08899,34.18755],[-118.08834,34.18755],[-118.08834,34.18701],[-118.08769,34.18701],[-118.08769,34.18647],[-118.08703,34.18647],[-118.08703,34.18593],[-118.08703,34.18539],[-118.08769,34.18539],[-118.08769,34.18593],[-118.08834,34.18593],[-118.08834,34.18647],[-118.08899,34.18647],[-118.08899,34.18701],[-118.08964,34.18701],[-118.08964,34.18755],[-118.09029,34.18755],[-118.09029,34.18809],[-118.09095,34.18809],[-118.09095,34.18863],[-118.0916,34.18863],[-118.0916,34.18917],[-118.09225,34.18917],[-118.09225,34.1897],[-118.0929,34.1897],[-118.0929,34.19024],[-118.09355,34.19024],[-118.09355,34.19078],[-118.0942,34.19078],[-118.0942,34.19132],[-118.09486,34.19132],[-118.09486,34.19186],[-118.09551,34.19186],[-118.09551,34.1924],[-118.09616,34.1924],[-118.09616,34.19294],[-118.09681,34.19294]]],[[[-118.09942,34.19564],[-118.10007,34.19564],[-118.10007,34.19617],[-118.10072,34.19617],[-118.10072,34.19671],[-118.10007,34.19671],[-118.09942,34.19671],[-118.09942,34.19617],[-118.09877,34.19617],[-118.09877,34.19564],[-118.09811,34.19564],[-118.09811,34.1951],[-118.09811,34.19456],[-118.09877,34.19456],[-118.09877,34.1951],[-118.09942,34.1951],[-118.09942,34.19564]]],[[[-118.10137,34.19671],[-118.10137,34.19725],[-118.10203,34.19725],[-118.10203,34.19779],[-118.10268,34.19779],[-118.10268,34.19833],[-118.10268,34.19887],[-118.10203,34.19887],[-118.10203,34.19833],[-118.10137,34.19833],[-118.10137,34.19779],[-118.10072,34.19779],[-118.10072,34.19725],[-118.10072,34.19671],[-118.10137,34.19671]]]]},"properties":{"id":1627,"step":25,"cells":44,"cost":58740,"fuel_group":"shrub"}},{"type":"Feature","geometry":{"type":"Polygon","coordinates":[[[-118.1483,34.21881],[-118.1483,34.21935],[-118.14765,34.21935],[-118.14765,34.21989],[-118.147,34.21989],[-118.147,34.22043],[-118.14635,34.22043],[-118.14635,34.22097],[-118.1457,34.22097],[-118.1457,34.22151],[-118.14504,34.22151],[-118.14504,34.22205],[-118.14439,34.22205],[-118.14439,34.22259],[-118.14374,34.22259],[-118.14374,34.22313],[-118.14309,34.22313],[-118.14309,34.22366],[-118.14244,34.22366],[-118.14244,34.2242],[-118.14178,34.2242],[-118.14178,34.22474],[-118.14113,34.22474],[-118.14113,34.22528],[-118.14048,34.22528],[-118.14048,34.22582],[-118.13983,34.22582],[-118.13983,34.22636],[-118.13918,34.22636],[-118.13918,34.2269],[-118.13853,34.2269],[-118.13853,34.22744],[-118.13787,34.22744],[-118.13787,34.22798],[-118.13722,34.22798],[-118.13722,34.22851],[-118.13657,34.22851],[-118.13657,34.22905],[-118.13592,34.22905],[-118.13592,34.22959],[-118.13527,34.22959],[-118.13527,34.23013],[-118.13462,34.23013],[-118.13462,34.23067],[-118.13396,34.23067],[-118.13396,34.23121],[-118.13331,34.23121],[-118.13331,34.23067],[-118.13331,34.23013],[-118.13396,34.23013],[-118.13396,34.22959],[-118.13462,34.22959],[-118.13462,34.22905],[-118.13527,34.22905],[-118.13527,34.22851],[-118.13592,34.22851],[-118.13592,34.22798],[-118.13657,34.22798],[-118.13657,34.22744],[-118.13722,34.22744],[-118.13722,34.2269],[-118.13787,34.2269],[-118.13787,34.22636],[-118.13853,34.22636],[-118.13853,34.22582],[-118.13918,34.22582],[-118.13918,34.22528],[-118.13983,34.22528],[-118.13983,34.22474],[-118.14048,34.22474],[-118.14048,34.2242],[-118.14113,34.2242],[-118.14113,34.22366],[-118.14178,34.22366],[-118.14178,34.22313],[-118.14244,34.22313],[-118.14244,34.22259],[-118.14309,34.22259],[-118.14309,34.22205],[-118.14374,34.22205],[-118.14374,34.22151],[-118.14439,34.22151],[-118.14439,34.22097],[-118.14504,34.22097],[-118.14504,34.22043],[-118.1457,34.22043],[-118.1457,34.21989],[-118.14635,34.21989],[-118.14635,34.21935],[-118.147,34.21935],[-118.147,34.21881],[-118.14765,34.21881],[-118.14765,34.21827],[-118.1483,34.21827],[-118.1483,34.21774],[-118.14895,34.21774],[-118.14895,34.21827],[-118.14895,34.21881],[-118.1483,34.21881]]]},"properties":{"id":989,"step":26,"cells":48,"cost":64080,"fuel_group":"shrub"}},{"type":"Feature","geometry":{"type":"Polygon","coordinates":[[[-118.13787,34.24037],[-118.13853,34.24037],[-118.13853,34.24091],[-118.13918,34.24091],[-118.13918,34.24145],[-118.13983,34.24145],[-118.13983,34.24199],[-118.14048,34.24199],[-118.14048,34.24253],[-118.14113,34.24253],[-118.14113,34.24306],[-118.14178,34.24306],[-118.14178,34.2436],[-118.14178,34.24414],[-118.14113,34.24414],[-118.14113,34.2436],[-118.14048,34.2436],[-118.14048,34.24306],[-118.13983,34.24306],[-118.13983,34.24253],[-118.13918,34.24253],[-118.13918,34.24199],[-118.13853,34.24199],[-118.13853,34.24145],[-118.13787,34.24145],[-118.13787,34.24091],[-118.13722,34.24091],[-118.13722,34.24037],[-118.13657,34.24037],[-118.13657,34.23983],[-118.13592,34.23983],[-118.13592,34.23929],[-118.13527,34.23929],[-118.13527,34.23875],[-118.13462,34.23875],[-118.13462,34.23821],[-118.13396,34.23821],[-118.13396,34.23768],[-118.13331,34.23768],[-118.13331,34.23714],[-118.13266,34.23714],[-118.13266,34.2366],[-118.13201,34.2366],[-118.13201,34.23606],[-118.13136,34.23606],[-118.13136,34.23552],[-118.1307,34.23552],[-118.1307,34.23498],[-118.13005,34.23498],[-118.13005,34.23444],[-118.1294,34.23444],[-118.1294,34.2339],[-118.12875,34.2339],[-118.12875,34.23336],[-118.1281,34.23336],[-118.1281,34.23283],[-118.12745,34.23283],[-118.12745,34.23229],[-118.12679,34.23229],[-118.12679,34.23175],[-118.12614,34.23175],[-118.12614,34.23121],[-118.12614,34.23067],[-118.12679,34.23067],[-118.12679,34.23121],[-118.12745,34.23121],[-118.12745,34.23175],[-118.1281,34.23175],[-118.1281,34.23229],[-118.12875,34.23229],[-118.12875,34.23283],[-118.1294,34.23283],[-118.1294,34.23336],[-118.13005,34.23336],[-118.13005,34.2339],[-118.1307,34.2339],[-118.1307,34.23444],[-118.13136,34.23444],[-118.13136,34.23498],[-118.13201,34.23498],[-118.13201,34.23552],[-118.13266,34.23552],[-118.13266,34.23606],[-118.13331,34.23606],[-118.13331,34.2366],[-118.13396,34.2366],[-118.13396,34.23714],[-118.13462,34.23714],[-118.13462,34.23768],[-118.13527,34.23768],[-118.13527,34.23821],[-118.13592,34.23821],[-118.13592,34.23875],[-118.13657,34.23875],[-118.13657,34.23929],[-118.13722,34.23929],[-118.13722,34.23983],[-118.13787,34.23983],[-118.13787,34.24037]]]},"properties":{"id":662,"step":27,"cells":48,"cost":63190,"fuel_group":"grass_shrub"}},{"type":"Feature","geometry":{"type":"Polygon","coordinates":[[[-118.09355,34.18647],[-118.09355,34.18701],[-118.0929,34.18701],[-118.0929,34.18755],[-118.09225,34.18755],[-118.09225,34.18809],[-118.0916,34.18809],[-118.0916,34.18863],[-118.09095,34.18863],[-118.09095,34.18917],[-118.09029,34.18917],[-118.09029,34.1897],[-118.08964,34.1897],[-118.08964,34.19024],[-118.08899,34.19024],[-118.08899,34.19078],[-118.08834,34.19078],[-118.08834,34.19132],[-118.08769,34.19132],[-118.08769,34.19186],[-118.08703,34.19186],[-118.08703,34.1924],[-118.08638,34.1924],[-118.08638,34.19294],[-118.08573,34.19294],[-118.08573,34.19348],[-118.08508,34.19348],[-118.08508,34.19402],[-118.08443,34.19402],[-118.08443,34.19456],[-118.08378,34.19456],[-118.08378,34.1951],[-118.08312,34.1951],[-118.08312,34.19564],[-118.08247,34.19564],[-118.08247,34.19617],[-118.08182,34.19617],[-118.08182,34.19671],[-118.08117,34.19671],[-118.08117,34.19725],[-118.08052,34.19725],[-118.08052,34.19779],[-118.07986,34.19779],[-118.07986,34.19833],[-118.07921,34.19833],[-118.07921,34.19887],[-118.07856,34.19887],[-118.07856,34.19833],[-118.07856,34.19779],[-118.07921,34.19779],[-118.07921,34.19725],[-118.07986,34.19725],[-118.07986,34.19671],[-118.08052,34.19671],[-118.08052,34.19617],[-118.08117,34.19617],[-118.08117,34.19564],[-118.08182,34.19564],[-118.08182,34.1951],[-118.08247,34.1951],[-118.08247,34.19456],[-118.08312,34.19456],[-118.08312,34.19402],[-118.08378,34.19402],[-118.08378,34.19348],[-118.08443,34.19348],[-118.08443,34.19294],[-118.08508,34.19294],[-118.08508,34.1924],[-118.08573,34.1924],[-118.08573,34.19186],[-118.08638,34.19186],[-118.08638,34.19132],[-118.08703,34.19132],[-118.08703,34.19078],[-118.08769,34.19078],[-118.08769,34.19024],[-118.08834,34.19024],[-118.08834,34.1897],[-118.08899,34.1897],[-118.08899,34.18917],[-118.08964,34.18917],[-118.08964,34.18863],[-118.09029,34.18863],[-118.09029,34.18809],[-118.09095,34.18809],[-118.09095,34.18755],[-118.0916,34.18755],[-118.0916,34.18701],[-118.09225,34.18701],[-118.09225,34.18647],[-118.0929,34.18647],[-118.0929,34.18593],[-118.09355,34.18593],[-118.09355,34.18539],[-118.0942,34.18539],[-118.0942,34.18593],[-118.0942,34.18647],[-118.09355,34.18647]]]},"properties":{"id":1637,"step":28,"cells":48,"cost":63190,"fuel_group":"shrub"}},{"type":"Feature","geometry":{"type":"MultiPolygon","coordinates":[[[[-118.17177,34.21073],[-118.17242,34.21073],[-118.17307,34.21073],[-118.17372,34.21073],[-118.17437,34.21073],[-118.17503,34.21073],[-118.17503,34.21127],[-118.17568,34.21127],[-118.17568,34.21181],[-118.17503,34.21181],[-118.17437,34.21181],[-118.17372,34.21181],[-118.17307,34.21181],[-118.17242,34.21181],[-118.17177,34.21181],[-118.17112,34.21181],[-118.17046,34.21181],[-118.16981,34.21181],[-118.16916,34.21181],[-118.16851,34.21181],[-118.16786,34.21181],[-118.1672,34.21181],[-118.16655,34.21181],[-118.1659,34.21181],[-118.1659,34.21127],[-118.1659,34.21073],[-118.16655,34.21073],[-118.1672,34.21073],[-118.16786,34.21073],[-118.16851,34.21073],[-118.16916,34.21073],[-118.16981,34.21073],[-118.17046,34.21073],[-118.17112,34.21073],[-118.17177,34.21073]]],[[[-118.16134,34.21073],[-118.16199,34.21073],[-118.16264,34.21073],[-118.16264,34.21127],[-118.16199,34.21127],[-118.16199,34.21181],[-118.16134,34.21181],[-118.16069,34.21181],[-118.16004,34.21181],[-118.15938,34.21181],[-118.15873,34.21181],[-118.15808,34.21181],[-118.15808,34.21127],[-118.15743,34.21127],[-118.15743,34.21073],[-118.15808,34.21073],[-118.15873,34.21073],[-118.15938,34.21073],[-118.15938,34.21127],[-118.16004,34.21127],[-118.16069,34.21127],[-118.16069,34.21073],[-118.16134,34.21073]]],[[[-118.15547,34.21073],[-118.15547,34.21127],[-118.15547,34.21181],[-118.15482,34.21181],[-118.15417,34.21181],[-118.15417,34.21127],[-118.15417,34.21073],[-118.15482,34.21073],[-118.15547,34.21073]]]]},"properties":{"id":1250,"step":29,"cells":45,"cost":66305,"fuel_group":"grass_shrub"}},{"type":"Feature","geometry":{"type":"MultiPolygon","coordinates":[[[[-118.1483,34.21235],[-118.1483,34.21289],[-118.14765,34.21289],[-118.14765,34.21342],[-118.147,34.21342],[-118.147,34.21396],[-118.14635,34.21396],[-118.1457,34.21396],[-118.1457,34.21342],[-118.14635,34.21342],[-118.14635,34.21289],[-118.147,34.21289],[-118.147,34.21235],[-118.14765,34.21235],[-118.14765,34.21181],[-118.1483,34.21181],[-118.1483,34.21127],[-118.14895,34.21127],[-118.14895,34.21181],[-118.14895,34.21235],[-118.1483,34.21235]]],[[[-118.14504,34.21558],[-118.14439,34.21558],[-118.14439,34.21612],[-118.14374,34.21612],[-118.14374,34.21666],[-118.14309,34.21666],[-118.14309,34.2172],[-118.14244,34.2172],[-118.14244,34.21774],[-118.14178,34.21774],[-118.14178,34.21827],[-118.14113,34.21827],[-118.14113,34.21881],[-118.14048,34.21881],[-118.14048,34.21935],[-118.13983,34.21935],[-118.13983,34.21989],[-118.13918,34.21989],[-118.13918,34.22043],[-118.13853,34.22043],[-118.13853,34.22097],[-118.13787,34.22097],[-118.13787,34.22151],[-118.13722,34.22151],[-118.13722,34.22205],[-118.13657,34.22205],[-118.13657,34.22259],[-118.13592,34.22259],[-118.13592,34.22313],[-118.13527,34.22313],[-118.13527,34.22366],[-118.13462,34.22366],[-118.13462,34.2242],[-118.13396,34.2242],[-118.13396,34.22474],[-118.13331,34.22474],[-118.13331,34.2242],[-118.13331,34.22366],[-118.13396,34.22366],[-118.13396,34.22313],[-118.13462,34.22313],[-118.13462,34.22259],[-118.13527,34.22259],[-118.13527,34.22205],[-118.13592,34.22205],[-118.13592,34.22151],[-118.13657,34.22151],[-118.13657,34.22097],[-118.13722,34.22097],[-118.13722,34.22043],[-118.13787,34.22043],[-118.13787,34.21989],[-118.13853,34.21989],[-118.13853,34.21935],[-118.13918,34.21935],[-118.13918,34.21881],[-118.13983,34.21881],[-118.13983,34.21827],[-118.14048,34.21827],[-118.14048,34.21774],[-118.14113,34.21774],[-118.14113,34.2172],[-118.14178,34.2172],[-118.14178,34.21666],[-118.14244,34.21666],[-118.14244,34.21612],[-118.14309,34.21612],[-118.14309,34.21558],[-118.14374,34.21558],[-118.14374,34.21504],[-118.14439,34.21504],[-118.14439,34.2145],[-118.14504,34.2145],[-118.14504,34.21396],[-118.1457,34.21396],[-118.1457,34.2145],[-118.1457,34.21504],[-118.14504,34.21504],[-118.14504,34.21558]]]]},"properties":{"id":1134,"step":30,"cells":47,"cost":62745,"fuel_group":"shrub"}},{"type":"Feature","geometry":{"type":"MultiPolygon","coordinates":[[[[-118.1672,34.21935],[-118.16786,34.21935],[-118.16786,34.21989],[-118.16851,34.21989],[-118.16851,34.22043],[-118.16916,34.22043],[-118.16916,34.22097],[-118.16916,34.22151],[-118.16851,34.22151],[-118.16851,34.22097],[-118.16786,34.22097],[-118.16786,34.22043],[-118.1672,34.22043],[-118.1672,34.21989],[-118.16655,34.21989],[-118.16655,34.21935],[-118.1659,34.21935],[-118.1659,34.21881],[-118.16525,34.21881],[-118.16525,34.21827],[-118.1646,34.21827],[-118.1646,34.21774],[-118.16395,34.21774],[-118.16395,34.2172],[-118.16329,34.2172],[-118.16329,34.21666],[-118.16264,34.21666],[-118.16264,34.21612],[-118.16264,34.21558],[-118.16329,34.21558],[-118.16329,34.21612],[-118.16395,34.21612],[-118.16395,34.21666],[-118.1646,34.21666],[-118.1646,34.2172],[-118.16525,34.2172],[-118.16525,34.21774],[-118.1659,34.21774],[-118.1659,34.21827],[-118.16655,34.21827],[-118.16655,34.21881],[-118.1672,34.21881],[-118.1672,34.21935]]],[[[-118.16199,34.21558],[-118.16134,34.21558],[-118.16134,34.21504],[-118.16134,34.2145],[-118.16199,34.2145],[-118.16199,34.21504],[-118.16199,34.21558]]]]},"properties":{"id":1107,"step":31,"cells":22,"cost":29370,"fuel_group":"shrub"}},{"type":"Feature","geometry":{"type":"Polygon","coordinates":[[[-118.12875,34.20534],[-118.1281,34.20534],[-118.12745,34.20534],[-118.12679,34.20534],[-118.12614,34.20534],[-118.12549,34.20534],[-118.12484,34.20534],[-118.12419,34.20534],[-118.12353,34.20534],[-118.12288,34.20534],[-118.12223,34.20534],[-118.12158,34.20534],[-118.12093,34.20534],[-118.12028,34.20534],[-118.11962,34.20534],[-118.11897,34.20534],[-118.11832,34.20534],[-118.11767,34.20534],[-118.11702,34.20534],[-118.11636,34.20534],[-118.11571,34.20534],[-118.11571,34.2048],[-118.11506,34.2048],[-118.11506,34.20534],[-118.11441,34.20534],[-118.11376,34.20534],[-118.11311,34.20534],[-118.11245,34.20534],[-118.1118,34.20534],[-118.11115,34.20534],[-118.11115,34.2048],[-118.1105,34.2048],[-118.1105,34.20534],[-118.10985,34.20534],[-118.1092,34.20534],[-118.10854,34.20534],[-118.10789,34.20534],[-118.10724,34.20534],[-118.10724,34.2048],[-118.10724,34.20426],[-118.10789,34.20426],[-118.10854,34.20426],[-118.1092,34.20426],[-118.10985,34.20426],[-118.1105,34.20426],[-118.11115,34.20426],[-118.1118,34.20426],[-118.11245,34.20426],[-118.11311,34.20426],[-118.11376,34.20426],[-118.11441,34.20426],[-118.11506,34.20426],[-118.11571,34.20426],[-118.11636,34.20426],[-118.11702,34.20426],[-118.11767,34.20426],[-118.11832,34.20426],[-118.11897,34.20426],[-118.11962,34.20426],[-118.12028,34.20426],[-118.12093,34.20426],[-118.12158,34.20426],[-118.12223,34.20426],[-118.12288,34.20426],[-118.12353,34.20426],[-118.12419,34.20426],[-118.12484,34.20426],[-118.12549,34.20426],[-118.12614,34.20426],[-118.12679,34.20426],[-118.12745,34.20426],[-118.1281,34.20426],[-118.12875,34.20426],[-118.12875,34.2048],[-118.12875,34.20534]]]},"properties":{"id":1394,"step":32,"cells":64,"cost":87220,"fuel_group":"shrub"}},{"type":"Feature","geometry":{"type":"Polygon","coordinates":[[[-118.13396,34.2242],[-118.13396,34.22474],[-118.13331,34.22474],[-118.13331,34.22528],[-118.13396,34.22528],[-118.13396,34.22582],[-118.13396,34.22636],[-118.13396,34.2269],[-118.13396,34.22744],[-118.13396,34.22798],[-118.13396,34.22851],[-118.13331,34.22851],[-118.13331,34.22905],[-118.13396,34.22905],[-118.13396,34.22959],[-118.13396,34.23013],[-118.13396,34.23067],[-118.13396,34.23121],[-118.13396,34.23175],[-118.13396,34.23229],[-118.13396,34.23283],[-118.13396,34.23336],[-118.13396,34.2339],[-118.13396,34.23444],[-118.13396,34.23498],[-118.13396,34.23552],[-118.13396,34.23606],[-118.13396,34.2366],[-118.13396,34.23714],[-118.13396,34.23768],[-118.13396,34.23821],[-118.13396,34.23875],[-118.13396,34.23929],[-118.13396,34.23983],[-118.13331,34.23983],[-118.13266,34.23983],[-118.13266,34.23929],[-118.13266,34.23875],[-118.13266,34.23821],[-118.13266,34.23768],[-118.13266,34.23714],[-118.13266,34.2366],[-118.13266,34.23606],[-118.13266,34.23552],[-118.13266,34.23498],[-118.13266,34.23444],[-118.13266,34.2339],[-118.13266,34.23336],[-118.13266,34.23283],[-118.13266,34.23229],[-118.13266,34.23175],[-118.13266,34.23121],[-118.13266,34.23067],[-118.13266,34.23013],[-118.13266,34.22959],[-118.13266,34.22905],[-118.13266,34.22851],[-118.13266,34.22798],[-118.13266,34.22744],[-118.13266,34.2269],[-118.13266,34.22636],[-118.13266,34.22582],[-118.13266,34.22528],[-118.13266,34.22474],[-118.13266,34.2242],[-118.13266,34.22366],[-118.13266,34.22313],[-118.13266,34.22259],[-118.13266,34.22205],[-118.13331,34.22205],[-118.13396,34.22205],[-118.13396,34.22259],[-118.13396,34.22313],[-118.13396,34.22366],[-118.13396,34.2242]]]},"properties":{"id":822,"step":33,"cells":64,"cost":80990,"fuel_group":"shrub"}},{"type":"Feature","geometry":{"type":"Polygon","coordinates":[[[-118.15026,34.2366],[-118.15091,34.2366],[-118.15156,34.2366],[-118.15221,34.2366],[-118.15287,34.2366],[-118.15352,34.2366],[-118.15417,34.2366],[-118.15482,34.2366],[-118.15482,34.23714],[-118.15482,34.23768],[-118.15417,34.23768],[-118.15352,34.23768],[-118.15287,34.23768],[-118.15221,34.23768],[-118.15156,34.23768],[-118.15091,34.23768],[-118.15026,34.23768],[-118.14961,34.23768],[-118.14895,34.23768],[-118.1483,34.23768],[-118.14765,34.23768],[-118.147,34.23768],[-118.14635,34.23768],[-118.1457,34.23768],[-118.14504,34.23768],[-118.14439,34.23768],[-118.14374,34.23768],[-118.14374,34.23714],[-118.14374,34.2366],[-118.14439,34.2366],[-118.14504,34.2366],[-118.1457,34.2366],[-118.14635,34.2366],[-118.147,34.2366],[-118.14765,34.2366],[-118.1483,34.2366],[-118.14895,34.2366],[-118.14961,34.2366],[-118.15026,34.2366]]]},"properties":{"id":644,"step":34,"cells":34,"cost":48060,"fuel_group":"grass_shrub"}},{"type":"Feature","geometry":{"type":"MultiPolygon","coordinates":[[[[-118.17437,34.20534],[-118.17372,34.20534],[-118.17372,34.2048],[-118.17372,34.20426],[-118.17437,34.20426],[-118.17503,34.20426],[-118.17568,34.20426],[-118.17568,34.2048],[-118.17503,34.2048],[-118.17503,34.20534],[-118.17437,34.20534]]],[[[-118.17046,34.20534],[-118.16981,34.20534],[-118.16916,34.20534],[-118.16851,34.20534],[-118.16851,34.2048],[-118.16851,34.20426],[-118.16916,34.20426],[-118.16981,34.20426],[-118.17046,34.20426],[-118.17112,34.20426],[-118.17177,34.20426],[-118.17242,34.20426],[-118.17242,34.2048],[-118.17307,34.2048],[-118.17307,34.20534],[-118.17242,34.20534],[-118.17177,34.20534],[-118.17177,34.2048],[-118.17112,34.2048],[-118.17046,34.2048],[-118.17046,34.20534]]],[[[-118.1646,34.20426],[-118.16525,34.20426],[-118.1659,34.20426],[-118.16655,34.20426],[-118.1672,34.20426],[-118.16786,34.20426],[-118.16786,34.2048],[-118.16786,34.20534],[-118.1672,34.20534],[-118.16655,34.20534],[-118.1659,34.20534],[-118.16525,34.20534],[-118.1646,34.20534],[-118.16395,34.20534],[-118.16329,34.20534],[-118.16264,34.20534],[-118.16199,34.20534],[-118.16199,34.2048],[-118.16199,34.20426],[-118.16264,34.20426],[-118.16329,34.20426],[-118.16395,34.20426],[-118.1646,34.20426]]],[[[-118.15612,34.2048],[-118.15547,34.2048],[-118.15547,34.20534],[-118.15482,34.20534],[-118.15417,34.20534],[-118.15417,34.2048],[-118.15417,34.20426],[-118.15482,34.20426],[-118.15547,34.20426],[-118.15612,34.20426],[-118.15612,34.2048]]],[[[-118.16069,34.20534],[-118.16004,34.20534],[-118.16004,34.2048],[-118.16069,34.2048],[-118.16134,34.2048],[-118.16134,34.20534],[-118.16069,34.20534]]],[[[-118.15612,34.2048],[-118.15678,34.2048],[-118.15743,34.2048],[-118.15808,34.2048],[-118.15808,34.20534],[-118.15743,34.20534],[-118.15678,34.20534],[-118.15612,34.20534],[-118.15612,34.2048]]]]},"properties":{"id":1379,"step":35,"cells":44,"cost":62300,"fuel_group":"grass_shrub"}},{"type":"Feature","geometry":{"type":"MultiPolygon","coordinates":[[[[-118.15417,34.2145],[-118.15417,34.21504],[-118.15482,34.21504],[-118.15482,34.21558],[-118.15547,34.21558],[-118.15547,34.21612],[-118.15612,34.21612],[-118.15612,34.21666],[-118.15678,34.21666],[-118.15678,34.2172],[-118.15743,34.2172],[-118.15743,34.21774],[-118.15743,34.21827],[-118.15678,34.21827],[-118.15678,34.21774],[-118.15612,34.21774],[-118.15612,34.2172],[-118.15547,34.2172],[-118.15547,34.21666],[-118.15482,34.21666],[-118.15482,34.21612],[-118.15417,34.21612],[-118.15417,34.21558],[-118.15352,34.21558],[-118.15352,34.21504],[-118.15287,34.21504],[-118.15287,34.2145],[-118.15221,34.2145],[-118.15221,34.21396],[-118.15156,34.21396],[-118.15156,34.21342],[-118.15091,34.21342],[-118.15091,34.21289],[-118.15026,34.21289],[-118.15026,34.21235],[-118.14961,34.21235],[-118.14961,34.21181],[-118.14895,34.21181],[-118.14895,34.21127],[-118.1483,34.21127],[-118.1483,34.21073],[-118.14765,34.21073],[-118.14765,34.21019],[-118.147,34.21019],[-118.147,34.20965],[-118.14635,34.20965],[-118.14635,34.20911],[-118.1457,34.20911],[-118.1457,34.20857],[-118.1457,34.20803],[-118.14635,34.20803],[-118.14635,34.20857],[-118.147,34.20857],[-118.147,34.20911],[-118.14765,34.20911],[-118.14765,34.20965],[-118.1483,34.20965],[-118.1483,34.21019],[-118.14895,34.21019],[-118.14895,34.21073],[-118.14961,34.21073],[-118.14961,34.21127],[-118.15026,34.21127],[-118.15026,34.21181],[-118.15091,34.21181],[-118.15091,34.21235],[-118.15156,34.21235],[-118.15156,34.21289],[-118.15221,34.21289],[-118.15221,34.21342],[-118.15287,34.21342],[-118.15287,34.21396],[-118.15352,34.21396],[-118.15352,34.2145],[-118.15417,34.2145]]],[[[-118.14439,34.20642],[-118.14439,34.20696],[-118.14504,34.20696],[-118.14504,34.20749],[-118.1457,34.20749],[-118.1457,34.20803],[-118.14504,34.20803],[-118.14439,34.20803],[-118.14439,34.20749],[-118.14374,34.20749],[-118.14374,34.20696],[-118.14374,34.20642],[-118.14439,34.20642]]]]},"properties":{"id":1263,"step":36,"cells":41,"cost":58295,"fuel_group":"shrub"}},{"type":"Feature","geometry":{"type":"MultiPolygon","coordinates":[[[[-118.16786,34.21989],[-118.16851,34.21989],[-118.16851,34.22043],[-118.16916,34.22043],[-118.16916,34.22097],[-118.16981,34.22097],[-118.16981,34.22151],[-118.17046,34.22151],[-118.17046,34.22205],[-118.17112,34.22205],[-118.17112,34.22259],[-118.17177,34.22259],[-118.17177,34.22313],[-118.17242,34.22313],[-118.17242,34.22366],[-118.17307,34.22366],[-118.17307,34.2242],[-118.17307,34.22474],[-118.17242,34.22474],[-118.17242,34.2242],[-118.17177,34.2242],[-118.17177,34.22366],[-118.17112,34.22366],[-118.17112,34.22313],[-118.17046,34.22313],[-118.17046,34.22259],[-118.16981,34.22259],[-118.16981,34.22205],[-118.16916,34.22205],[-118.16916,34.22151],[-118.16851,34.22151],[-118.16851,34.22097],[-118.16786,34.22097],[-118.16786,34.22043],[-118.1672,34.22043],[-118.1672,34.21989],[-118.16655,34.21989],[-118.16655,34.21935],[-118.1659,34.21935],[-118.1659,34.21881],[-118.16525,34.21881],[-118.16525,34.21827],[-118.1646,34.21827],[-118.1646,34.21774],[-118.16395,34.21774],[-118.16395,34.2172],[-118.16329,34.2172],[-118.16329,34.21666],[-118.16264,34.21666],[-118.16264,34.21612],[-118.16264,34.21558],[-118.16329,34.21558],[-118.16329,34.21612],[-118.16395,34.21612],[-118.16395,34.21666],[-118.1646,34.21666],[-118.1646,34.2172],[-118.16525,34.2172],[-118.16525,34.21774],[-118.1659,34.21774],[-118.1659,34.21827],[-118.16655,34.21827],[-118.16655,34.21881],[-118.1672,34.21881],[-118.1672,34.21935],[-118.16786,34.21935],[-118.16786,34.21989]]],[[[-118.16004,34.21342],[-118.16069,34.21342],[-118.16069,34.21396],[-118.16004,34.21396],[-118.15938,34.21396],[-118.15938,34.21342],[-118.15873,34.21342],[-118.15873,34.21289],[-118.15938,34.21289],[-118.16004,34.21289],[-118.16004,34.21342]]],[[[-118.16134,34.2145],[-118.16199,34.2145],[-118.16199,34.21504],[-118.16199,34.21558],[-118.16134,34.21558],[-118.16134,34.21504],[-118.16069,34.21504],[-118.16069,34.2145],[-118.16069,34.21396],[-118.16134,34.21396],[-118.16134,34.2145]]]]},"properties":{"id":1108,"step":37,"cells":40,"cost":56070,"fuel_group":"shrub"}},{"type":"Feature","geometry":{"type":"MultiPolygon","coordinates":[[[[-118.13396,34.20803],[-118.13396,34.20857],[-118.13396,34.20911],[-118.13396,34.20965],[-118.13396,34.21019],[-118.13396,34.21073],[-118.13396,34.21127],[-118.13396,34.21181],[-118.13396,34.21235],[-118.13396,34.21289],[-118.13396,34.21342],[-118.13396,34.21396],[-118.13396,34.2145],[-118.13396,34.21504],[-118.13396,34.21558],[-118.13396,34.21612],[-118.13396,34.21666],[-118.13396,34.2172],[-118.13396,34.21774],[-118.13396,34.21827],[-118.13396,34.21881],[-118.13396,34.21935],[-118.13396,34.21989],[-118.13396,34.22043],[-118.13331,34.22043],[-118.13266,34.22043],[-118.13266,34.21989],[-118.13266,34.21935],[-118.13266,34.21881],[-118.13266,34.21827],[-118.13266,34.21774],[-118.13266,34.2172],[-118.13266,34.21666],[-118.13266,34.21612],[-118.13266,34.21558],[-118.13266,34.21504],[-118.13266,34.2145],[-118.13266,34.21396],[-118.13266,34.21342],[-118.13266,34.21289],[-118.13266,34.21235],[-118.13266,34.21181],[-118.13266,34.21127],[-118.13266,34.21073],[-118.13266,34.21019],[-118.13266,34.20965],[-118.13266,34.20911],[-118.13266,34.20857],[-118.13266,34.20803],[-118.13266,34.20749],[-118.13331,34.20749],[-118.13331,34.20696],[-118.13266,34.20696],[-118.13266,34.20642],[-118.13266,34.20588],[-118.13331,34.20588],[-118.13331,34.20642],[-118.13396,34.20642],[-118.13396,34.20696],[-118.13396,34.20749],[-118.13396,34.20803]]],[[[-118.13331,34.2048],[-118.13266,34.2048],[-118.13266,34.20426],[-118.13331,34.20426],[-118.13331,34.2048]]]]},"properties":{"id":1277,"step":38,"cells":53,"cost":70755,"fuel_group":"shrub"}},{"type":"Feature","geometry":{"type":"MultiPolygon","coordinates":[[[[-118.10203,34.19132],[-118.10268,34.19132],[-118.10268,34.19186],[-118.10268,34.1924],[-118.10203,34.1924],[-118.10137,34.1924],[-118.10072,34.1924],[-118.10007,34.1924],[-118.09942,34.1924],[-118.09877,34.1924],[-118.09811,34.1924],[-118.09746,34.1924],[-118.09681,34.1924],[-118.09616,34.1924],[-118.09551,34.1924],[-118.09486,34.1924],[-118.0942,34.1924],[-118.09355,34.1924],[-118.0929,34.1924],[-118.09225,34.1924],[-118.0916,34.1924],[-118.09095,34.1924],[-118.09029,34.1924],[-118.08964,34.1924],[-118.08899,34.1924],[-118.08834,34.1924],[-118.08769,34.1924],[-118.08703,34.1924],[-118.08638,34.1924],[-118.08573,34.1924],[-118.08508,34.1924],[-118.08443,34.1924],[-118.08378,34.1924],[-118.08378,34.19186],[-118.08378,34.19132],[-118.08443,34.19132],[-118.08508,34.19132],[-118.08573,34.19132],[-118.08638,34.19132],[-118.08703,34.19132],[-118.08769,34.19132],[-118.08834,34.19132],[-118.08899,34.19132],[-118.08964,34.19132],[-118.09029,34.19132],[-118.09095,34.19132],[-118.0916,34.19132],[-118.09225,34.19132],[-118.0929,34.19132],[-118.09355,34.19132],[-118.0942,34.19132],[-118.09486,34.19132],[-118.09551,34.19132],[-118.09616,34.19132],[-118.09681,34.19132],[-118.09746,34.19132],[-118.09811,34.19132],[-118.09811,34.19186],[-118.09877,34.19186],[-118.09942,34.19186],[-118.10007,34.19186],[-118.10072,34.19186],[-118.10072,34.19132],[-118.10137,34.19132],[-118.10203,34.19132]]],[[[-118.10528,34.1924],[-118.10463,34.1924],[-118.10398,34.1924],[-118.10333,34.1924],[-118.10333,34.19186],[-118.10333,34.19132],[-118.10398,34.19132],[-118.10463,34.19132],[-118.10528,34.19132],[-118.10528,34.19186],[-118.10528,34.1924]]]]},"properties":{"id":1623,"step":39,"cells":60,"cost":79210,"fuel_group":"shrub"}},{"type":"Feature","geometry":{"type":"Polygon","coordinates":[[[-118.12875,34.23768],[-118.1281,34.23768],[-118.12745,34.23768],[-118.12679,34.23768],[-118.12614,34.23768],[-118.12549,34.23768],[-118.12484,34.23768],[-118.12419,34.23768],[-118.12353,34.23768],[-118.12288,34.23768],[-118.12223,34.23768],[-118.12158,34.23768],[-118.12093,34.23768],[-118.12028,34.23768],[-118.11962,34.23768],[-118.11897,34.23768],[-118.11832,34.23768],[-118.11767,34.23768],[-118.11702,34.23768],[-118.11636,34.23768],[-118.11571,34.23768],[-118.11506,34.23768],[-118.11441,34.23768],[-118.11376,34.23768],[-118.11311,34.23768],[-118.11245,34.23768],[-118.1118,34.23768],[-118.11115,34.23768],[-118.1105,34.23768],[-118.10985,34.23768],[-118.1092,34.23768],[-118.10854,34.23768],[-118.10789,34.23768],[-118.10724,34.23768],[-118.10724,34.23714],[-118.10724,34.2366],[-118.10789,34.2366],[-118.10854,34.2366],[-118.1092,34.2366],[-118.10985,34.2366],[-118.1105,34.2366],[-118.11115,34.2366],[-118.1118,34.2366],[-118.11245,34.2366],[-118.11311,34.2366],[-118.11376,34.2366],[-118.11441,34.2366],[-118.11506,34.2366],[-118.11571,34.2366],[-118.11636,34.2366],[-118.11702,34.2366],[-118.11767,34.2366],[-118.11832,34.2366],[-118.11897,34.2366],[-118.11962,34.2366],[-118.12028,34.2366],[-118.12093,34.2366],[-118.12158,34.2366],[-118.12223,34.2366],[-118.12288,34.2366],[-118.12353,34.2366],[-118.12419,34.2366],[-118.12484,34.2366],[-118.12549,34.2366],[-118.12614,34.2366],[-118.12679,34.2366],[-118.12745,34.2366],[-118.1281,34.2366],[-118.12875,34.2366],[-118.12875,34.23714],[-118.12875,34.23768]]]},"properties":{"id":673,"step":40,"cells":66,"cost":105910,"fuel_group":"grass_shrub"}},{"type":"Feature","geometry":{"type":"Polygon","coordinates":[[[-118.13396,34.21127],[-118.13396,34.21181],[-118.13396,34.21235],[-118.13396,34.21289],[-118.13396,34.21342],[-118.13396,34.21396],[-118.13396,34.2145],[-118.13396,34.21504],[-118.13396,34.21558],[-118.13396,34.21612],[-118.13396,34.21666],[-118.13396,34.2172],[-118.13396,34.21774],[-118.13396,34.21827],[-118.13396,34.21881],[-118.13396,34.21935],[-118.13396,34.21989],[-118.13396,34.22043],[-118.13396,34.22097],[-118.13396,34.22151],[-118.13396,34.22205],[-118.13396,34.22259],[-118.13396,34.22313],[-118.13396,34.22366],[-118.13396,34.2242],[-118.13396,34.22474],[-118.13331,34.22474],[-118.13331,34.22528],[-118.13396,34.22528],[-118.13396,34.22582],[-118.13396,34.22636],[-118.13396,34.2269],[-118.13331,34.2269],[-118.13266,34.2269],[-118.13266,34.22636],[-118.13266,34.22582],[-118.13266,34.22528],[-118.13266,34.22474],[-118.13266,34.2242],[-118.13266,34.22366],[-118.13266,34.22313],[-118.13266,34.22259],[-118.13266,34.22205],[-118.13266,34.22151],[-118.13266,34.22097],[-118.13266,34.22043],[-118.13266,34.21989],[-118.13266,34.21935],[-118.13266,34.21881],[-118.13266,34.21827],[-118.13266,34.21774],[-118.13266,34.2172],[-118.13266,34.21666],[-118.13266,34.21612],[-118.13266,34.21558],[-118.13266,34.21504],[-118.13266,34.2145],[-118.13266,34.21396],[-118.13266,34.21342],[-118.13266,34.21289],[-118.13266,34.21235],[-118.13266,34.21181],[-118.13266,34.21127],[-118.13266,34.21073],[-118.13266,34.21019],[-118.13266,34.20965],[-118.13266,34.20911],[-118.13331,34.20911],[-118.13396,34.20911],[-118.13396,34.20965],[-118.13396,34.21019],[-118.13396,34.21073],[-118.13396,34.21127]]]},"properties":{"id":1138,"step":41,"cells":65,"cost":86775,"fuel_group":"shrub"}},{"type":"Feature","geometry":{"type":"Polygon","coordinates":[[[-118.13787,34.2339],[-118.13853,34.2339],[-118.13853,34.23444],[-118.13918,34.23444],[-118.13918,34.23498],[-118.13983,34.23498],[-118.13983,34.23552],[-118.14048,34.23552],[-118.14048,34.23606],[-118.14113,34.23606],[-118.14113,34.2366],[-118.14178,34.2366],[-118.14178,34.23714],[-118.14178,34.23768],[-118.14113,34.23768],[-118.14113,34.23714],[-118.14048,34.23714],[-118.14048,34.2366],[-118.13983,34.2366],[-118.13983,34.23606],[-118.13918,34.23606],[-118.13918,34.23552],[-118.13853,34.23552],[-118.13853,34.23498],[-118.13787,34.23498],[-118.13787,34.23444],[-118.13722,34.23444],[-118.13722,34.2339],[-118.13657,34.2339],[-118.13657,34.23336],[-118.13592,34.23336],[-118.13592,34.23283],[-118.13527,34.23283],[-118.13527,34.23229],[-118.13462,34.23229],[-118.13462,34.23175],[-118.13396,34.23175],[-118.13396,34.23121],[-118.13331,34.23121],[-118.13331,34.23067],[-118.13266,34.23067],[-118.13266,34.23013],[-118.13201,34.23013],[-118.13201,34.22959],[-118.13136,34.22959],[-118.13136,34.22905],[-118.1307,34.22905],[-118.1307,34.22851],[-118.13005,34.22851],[-118.13005,34.22798],[-118.1294,34.22798],[-118.1294,34.22744],[-118.12875,34.22744],[-118.12875,34.2269],[-118.1281,34.2269],[-118.1281,34.22636],[-118.12745,34.22636],[-118.12745,34.22582],[-118.12679,34.22582],[-118.12679,34.22528],[-118.12614,34.22528],[-118.12614,34.22474],[-118.12614,34.2242],[-118.12679,34.2242],[-118.12679,34.22474],[-118.12745,34.22474],[-118.12745,34.22528],[-118.1281,34.22528],[-118.1281,34.22582],[-118.12875,34.22582],[-118.12875,34.22636],[-118.1294,34.22636],[-118.1294,34.2269],[-118.13005,34.2269],[-118.13005,34.22744],[-118.1307,34.22744],[-118.1307,34.22798],[-118.13136,34.22798],[-118.13136,34.22851],[-118.13201,34.22851],[-118.13201,34.22905],[-118.13266,34.22905],[-118.13266,34.22959],[-118.13331,34.22959],[-118.13331,34.23013],[-118.13396,34.23013],[-118.13396,34.23067],[-118.13462,34.23067],[-118.13462,34.23121],[-118.13527,34.23121],[-118.13527,34.23175],[-118.13592,34.23175],[-118.13592,34.23229],[-118.13657,34.23229],[-118.13657,34.23283],[-118.13722,34.23283],[-118.13722,34.23336],[-118.13787,34.23336],[-118.13787,34.2339]]]},"properties":{"id":824,"step":42,"cells":48,"cost":70310,"fuel_group":"shrub"}},{"type":"Feature","geometry":{"type":"Polygon","coordinates":[[[-118.09355,34.19294],[-118.09355,34.19348],[-118.0929,34.19348],[-118.0929,34.19402],[-118.09225,34.19402],[-118.09225,34.19456],[-118.0916,34.19456],[-118.0916,34.1951],[-118.09095,34.1951],[-118.09095,34.19564],[-118.09029,34.19564],[-118.09029,34.19617],[-118.08964,34.19617],[-118.08964,34.19671],[-118.08899,34.19671],[-118.08899,34.19725],[-118.08834,34.19725],[-118.08834,34.19779],[-118.08769,34.19779],[-118.08769,34.19833],[-118.08703,34.19833],[-118.08703,34.19887],[-118.08638,34.19887],[-118.08638,34.19941],[-118.08573,34.19941],[-118.08573,34.19995],[-118.08508,34.19995],[-118.08508,34.20049],[-118.08443,34.20049],[-118.08443,34.20103],[-118.08378,34.20103],[-118.08378,34.20157],[-118.08312,34.20157],[-118.08312,34.2021],[-118.08247,34.2021],[-118.08247,34.20264],[-118.08182,34.20264],[-118.08182,34.20318],[-118.08117,34.20318],[-118.08117,34.20372],[-118.08052,34.20372],[-118.08052,34.20426],[-118.07986,34.20426],[-118.07986,34.2048],[-118.07921,34.2048],[-118.07921,34.20534],[-118.07856,34.20534],[-118.07856,34.2048],[-118.07856,34.20426],[-118.07921,34.20426],[-118.07921,34.20372],[-118.07986,34.20372],[-118.07986,34.20318],[-118.08052,34.20318],[-118.08052,34.20264],[-118.08117,34.20264],[-118.08117,34.2021],[-118.08182,34.2021],[-118.08182,34.20157],[-118.08247,34.20157],[-118.08247,34.20103],[-118.08312,34.20103],[-118.08312,34.20049],[-118.08378,34.20049],[-118.08378,34.19995],[-118.08443,34.19995],[-118.08443,34.19941],[-118.08508,34.19941],[-118.08508,34.19887],[-118.08573,34.19887],[-118.08573,34.19833],[-118.08638,34.19833],[-118.08638,34.19779],[-118.08703,34.19779],[-118.08703,34.19725],[-118.08769,34.19725],[-118.08769,34.19671],[-118.08834,34.19671],[-118.08834,34.19617],[-118.08899,34.19617],[-118.08899,34.19564],[-118.08964,34.19564],[-118.08964,34.1951],[-118.09029,34.1951],[-118.09029,34.19456],[-118.09095,34.19456],[-118.09095,34.19402],[-118.0916,34.19402],[-118.0916,34.19348],[-118.09225,34.19348],[-118.09225,34.19294],[-118.0929,34.19294],[-118.0929,34.1924],[-118.09355,34.1924],[-118.09355,34.19186],[-118.0942,34.19186],[-118.0942,34.1924],[-118.0942,34.19294],[-118.09355,34.19294]]]},"properties":{"id":1535,"step":43,"cells":48,"cost":65860,"fuel_group":"shrub"}},{"type":"Feature","geometry":{"type":"Polygon","coordinates":[[[-118.14048,34.21235],[-118.14048,34.21289],[-118.13983,34.21289],[-118.13983,34.21342],[-118.13918,34.21342],[-118.13918,34.21396],[-118.13853,34.21396],[-118.13853,34.2145],[-118.13787,34.2145],[-118.13787,34.21504],[-118.13722,34.21504],[-118.13722,34.21558],[-118.13657,34.21558],[-118.13657,34.21612],[-118.13592,34.21612],[-118.13592,34.21666],[-118.13527,34.21666],[-118.13527,34.2172],[-118.13462,34.2172],[-118.13462,34.21774],[-118.13396,34.21774],[-118.13396,34.21827],[-118.13331,34.21827],[-118.13331,34.21881],[-118.13266,34.21881],[-118.13266,34.21935],[-118.13201,34.21935],[-118.13201,34.21989],[-118.13136,34.21989],[-118.13136,34.22043],[-118.1307,34.22043],[-118.1307,34.22097],[-118.13005,34.22097],[-118.13005,34.22151],[-118.1294,34.22151],[-118.1294,34.22205],[-118.12875,34.22205],[-118.12875,34.22259],[-118.1281,34.22259],[-118.1281,34.22313],[-118.12745,34.22313],[-118.12745,34.22366],[-118.12679,34.22366],[-118.12679,34.2242],[-118.12614,34.2242],[-118.12614,34.22474],[-118.12549,34.22474],[-118.12549,34.2242],[-118.12549,34.22366],[-118.12614,34.22366],[-118.12614,34.22313],[-118.12679,34.22313],[-118.12679,34.22259],[-118.12745,34.22259],[-118.12745,34.22205],[-118.1281,34.22205],[-118.1281,34.22151],[-118.12875,34.22151],[-118.12875,34.22097],[-118.1294,34.22097],[-118.1294,34.22043],[-118.13005,34.22043],[-118.13005,34.21989],[-118.1307,34.21989],[-118.1307,34.21935],[-118.13136,34.21935],[-118.13136,34.21881],[-118.13201,34.21881],[-118.13201,34.21827],[-118.13266,34.21827],[-118.13266,34.21774],[-118.13331,34.21774],[-118.13331,34.2172],[-118.13396,34.2172],[-118.13396,34.21666],[-118.13462,34.21666],[-118.13462,34.21612],[-118.13527,34.21612],[-118.13527,34.21558],[-118.13592,34.21558],[-118.13592,34.21504],[-118.13657,34.21504],[-118.13657,34.2145],[-118.13722,34.2145],[-118.13722,34.21396],[-118.13787,34.21396],[-118.13787,34.21342],[-118.13853,34.21342],[-118.13853,34.21289],[-118.13918,34.21289],[-118.13918,34.21235],[-118.13983,34.21235],[-118.13983,34.21181],[-118.14048,34.21181],[-118.14048,34.21127],[-118.14113,34.21127],[-118.14113,34.21181],[-118.14113,34.21235],[-118.14048,34.21235]]]},"properties":{"id":1142,"step":44,"cells":48,"cost":64080,"fuel_group":"grass_shrub"}},{"type":"Feature","geometry":{"type":"MultiPolygon","coordinates":[[[[-118.1092,34.18],[-118.1092,34.18054],[-118.10854,34.18054],[-118.10854,34.18],[-118.10854,34.17946],[-118.1092,34.17946],[-118.1092,34.17892],[-118.10985,34.17892],[-118.10985,34.17946],[-118.10985,34.18],[-118.1092,34.18]]],[[[-118.10659,34.18108],[-118.10724,34.18108],[-118.10789,34.18108],[-118.10789,34.18162],[-118.10724,34.18162],[-118.10659,34.18162],[-118.10659,34.18108]]],[[[-118.10594,34.1827],[-118.10594,34.18216],[-118.10594,34.18162],[-118.10659,34.18162],[-118.10659,34.18216],[-118.10659,34.1827],[-118.10594,34.1827]]],[[[-118.10528,34.18323],[-118.10463,34.18323],[-118.10463,34.1827],[-118.10528,34.1827],[-118.10528,34.18323]]],[[[-118.10398,34.18431],[-118.10333,34.18431],[-118.10333,34.18377],[-118.10398,34.18377],[-118.10398,34.18323],[-118.10463,34.18323],[-118.10463,34.18377],[-118.10463,34.18431],[-118.10398,34.18431]]],[[[-118.10333,34.18485],[-118.10333,34.18539],[-118.10268,34.18539],[-118.10268,34.18485],[-118.10333,34.18485]]],[[[-118.10268,34.18539],[-118.10268,34.18593],[-118.10203,34.18593],[-118.10203,34.18539],[-118.10268,34.18539]]],[[[-118.10072,34.18755],[-118.10007,34.18755],[-118.10007,34.18809],[-118.09942,34.18809],[-118.09942,34.18863],[-118.09877,34.18863],[-118.09877,34.18917],[-118.09811,34.18917],[-118.09811,34.1897],[-118.09746,34.1897],[-118.09746,34.19024],[-118.09681,34.19024],[-118.09681,34.19078],[-118.09616,34.19078],[-118.09616,34.19132],[-118.09551,34.19132],[-118.09551,34.19186],[-118.09486,34.19186],[-118.09486,34.1924],[-118.0942,34.1924],[-118.0942,34.19186],[-118.0942,34.19132],[-118.09486,34.19132],[-118.09486,34.19078],[-118.09551,34.19078],[-118.09551,34.19024],[-118.09616,34.19024],[-118.09616,34.1897],[-118.09681,34.1897],[-118.09681,34.18917],[-118.09746,34.18917],[-118.09746,34.18863],[-118.09811,34.18863],[-118.09811,34.18809],[-118.09877,34.18809],[-118.09877,34.18755],[-118.09942,34.18755],[-118.09942,34.18701],[-118.10007,34.18701],[-118.10007,34.18647],[-118.10072,34.18647],[-118.10072,34.18593],[-118.10137,34.18593],[-118.10137,34.18647],[-118.10137,34.18701],[-118.10072,34.18701],[-118.10072,34.18755]]]]},"properties":{"id":1719,"step":45,"cells":36,"cost":55180,"fuel_group":"shrub"}},{"type":"Feature","geometry":{"type":"MultiPolygon","coordinates":[[[[-118.09746,34.18755],[-118.09811,34.18755],[-118.09811,34.18809],[-118.09877,34.18809],[-118.09877,34.18863],[-118.09942,34.18863],[-118.09942,34.18917],[-118.09942,34.1897],[-118.09877,34.1897],[-118.09877,34.18917],[-118.09811,34.18917],[-118.09811,34.18863],[-118.09746,34.18863],[-118.09746,34.18809],[-118.09681,34.18809],[-118.09681,34.18755],[-118.09616,34.18755],[-118.09616,34.18701],[-118.09551,34.18701],[-118.09551,34.18647],[-118.09486,34.18647],[-118.09486,34.18593],[-118.0942,34.18593],[-118.0942,34.18539],[-118.09355,34.18539],[-118.09355,34.18485],[-118.0929,34.18485],[-118.0929,34.18431],[-118.09225,34.18431],[-118.09225,34.18377],[-118.0916,34.18377],[-118.0916,34.18323],[-118.09095,34.18323],[-118.09095,34.1827],[-118.09095,34.18216],[-118.0916,34.18216],[-118.0916,34.1827],[-118.09225,34.1827],[-118.09225,34.18323],[-118.0929,34.18323],[-118.0929,34.18377],[-118.09355,34.18377],[-118.09355,34.18431],[-118.0942,34.18431],[-118.0942,34.18485],[-118.09486,34.18485],[-118.09486,34.18539],[-118.09551,34.18539],[-118.09551,34.18593],[-118.09616,34.18593],[-118.09616,34.18647],[-118.09681,34.18647],[-118.09681,34.18701],[-118.09746,34.18701],[-118.09746,34.18755]]],[[[-118.10072,34.1897],[-118.10072,34.19024],[-118.10137,34.19024],[-118.10137,34.19078],[-118.10203,34.19078],[-118.10203,34.19132],[-118.10268,34.19132],[-118.10268,34.19186],[-118.10268,34.1924],[-118.10203,34.1924],[-118.10203,34.19186],[-118.10137,34.19186],[-118.10137,34.19132],[-118.10072,34.19132],[-118.10072,34.19078],[-118.10007,34.19078],[-118.10007,34.19024],[-118.09942,34.19024],[-118.09942,34.1897],[-118.10007,34.1897],[-118.10072,34.1897]]],[[[-118.08769,34.17892],[-118.08769,34.17946],[-118.08703,34.17946],[-118.08703,34.17892],[-118.08769,34.17892]]],[[[-118.08834,34.18],[-118.08834,34.18054],[-118.08769,34.18054],[-118.08769,34.18],[-118.08834,34.18]]],[[[-118.08964,34.18108],[-118.08964,34.18162],[-118.08899,34.18162],[-118.08899,34.18108],[-118.08964,34.18108]]]]},"properties":{"id":1725,"step":46,"cells":38,"cost":51620,"fuel_group":"shrub"}},{"type":"Feature","geometry":{"type":"Polygon","coordinates":[[[-118.1457,34.24037],[-118.14635,34.24037],[-118.14635,34.24091],[-118.147,34.24091],[-118.147,34.24145],[-118.14765,34.24145],[-118.14765,34.24199],[-118.1483,34.24199],[-118.1483,34.24253],[-118.14895,34.24253],[-118.14895,34.24306],[-118.14961,34.24306],[-118.14961,34.2436],[-118.14961,34.24414],[-118.14895,34.24414],[-118.14895,34.2436],[-118.1483,34.2436],[-118.1483,34.24306],[-118.14765,34.24306],[-118.14765,34.24253],[-118.147,34.24253],[-118.147,34.24199],[-118.14635,34.24199],[-118.14635,34.24145],[-118.1457,34.24145],[-118.1457,34.24091],[-118.14504,34.24091],[-118.14504,34.24037],[-118.14439,34.24037],[-118.14439,34.23983],[-118.14374,34.23983],[-118.14374,34.23929],[-118.14309,34.23929],[-118.14309,34.23875],[-118.14244,34.23875],[-118.14244,34.23821],[-118.14178,34.23821],[-118.14178,34.23768],[-118.14113,34.23768],[-118.14113,34.23714],[-118.14048,34.23714],[-118.14048,34.2366],[-118.13983,34.2366],[-118.13983,34.23606],[-118.13918,34.23606],[-118.13918,34.23552],[-118.13853,34.23552],[-118.13853,34.23498],[-118.13787,34.23498],[-118.13787,34.23444],[-118.13722,34.23444],[-118.13722,34.2339],[-118.13657,34.2339],[-118.13657,34.23336],[-118.13592,34.23336],[-118.13592,34.23283],[-118.13527,34.23283],[-118.13527,34.23229],[-118.13462,34.23229],[-118.13462,34.23175],[-118.13396,34.23175],[-118.13396,34.23121],[-118.13396,34.23067],[-118.13462,34.23067],[-118.13462,34.23121],[-118.13527,34.23121],[-118.13527,34.23175],[-118.13592,34.23175],[-118.13592,34.23229],[-118.13657,34.23229],[-118.13657,34.23283],[-118.13722,34.23283],[-118.13722,34.23336],[-118.13787,34.23336],[-118.13787,34.2339],[-118.13853,34.2339],[-118.13853,34.23444],[-118.13918,34.23444],[-118.13918,34.23498],[-118.13983,34.23498],[-118.13983,34.23552],[-118.14048,34.23552],[-118.14048,34.23606],[-118.14113,34.23606],[-118.14113,34.2366],[-118.14178,34.2366],[-118.14178,34.23714],[-118.14244,34.23714],[-118.14244,34.23768],[-118.14309,34.23768],[-118.14309,34.23821],[-118.14374,34.23821],[-118.14374,34.23875],[-118.14439,34.23875],[-118.14439,34.23929],[-118.14504,34.23929],[-118.14504,34.23983],[-118.1457,34.23983],[-118.1457,34.24037]]]},"properties":{"id":657,"step":47,"cells":48,"cost":66750,"fuel_group":"grass_shrub"}},{"type":"Feature","geometry":{"type":"Polygon","coordinates":[[[-118.14309,34.24414],[-118.14309,34.24468],[-118.14374,34.24468],[-118.14374,34.24522],[-118.14439,34.24522],[-118.14439,34.24576],[-118.14504,34.24576],[-118.14504,34.2463],[-118.1457,34.2463],[-118.1457,34.24684],[-118.1457,34.24737],[-118.14504,34.24737],[-118.14504,34.24684],[-118.14439,34.24684],[-118.14439,34.2463],[-118.14374,34.2463],[-118.14374,34.24576],[-118.14309,34.24576],[-118.14309,34.24522],[-118.14244,34.24522],[-118.14244,34.24468],[-118.14178,34.24468],[-118.14178,34.24414],[-118.14113,34.24414],[-118.14113,34.2436],[-118.14048,34.2436],[-118.14048,34.24306],[-118.13983,34.24306],[-118.13983,34.24253],[-118.13918,34.24253],[-118.13918,34.24199],[-118.13853,34.24199],[-118.13853,34.24145],[-118.13787,34.24145],[-118.13787,34.24091],[-118.13787,34.24037],[-118.13853,34.24037],[-118.13853,34.24091],[-118.13918,34.24091],[-118.13918,34.24145],[-118.13983,34.24145],[-118.13983,34.24199],[-118.14048,34.24199],[-118.14048,34.24253],[-118.14113,34.24253],[-118.14113,34.24306],[-118.14178,34.24306],[-118.14178,34.2436],[-118.14244,34.2436],[-118.14244,34.24414],[-118.14309,34.24414]]]},"properties":{"id":509,"step":48,"cells":24,"cost":30260,"fuel_group":"grass_shrub"}},{"type":"Feature","geometry":{"type":"MultiPolygon","coordinates":[[[[-118.17177,34.2048],[-118.17242,34.2048],[-118.17242,34.20534],[-118.17177,34.20534],[-118.17177,34.2048]]],[[[-118.17177,34.20642],[-118.17112,34.20642],[-118.17112,34.20696],[-118.17046,34.20696],[-118.17046,34.20749],[-118.16981,34.20749],[-118.16981,34.20803],[-118.16916,34.20803],[-118.16916,34.20857],[-118.16851,34.20857],[-118.16851,34.20911],[-118.16786,34.20911],[-118.16786,34.20965],[-118.1672,34.20965],[-118.1672,34.21019],[-118.16655,34.21019],[-118.1659,34.21019],[-118.1659,34.20965],[-118.16655,34.20965],[-118.16655,34.20911],[-118.1672,34.20911],[-118.1672,34.20857],[-118.16786,34.20857],[-118.16786,34.20803],[-118.16851,34.20803],[-118.16851,34.20749],[-118.16916,34.20749],[-118.16916,34.20696],[-118.16981,34.20696],[-118.16981,34.20642],[-118.17046,34.20642],[-118.17046,34.20588],[-118.17112,34.20588],[-118.17112,34.20534],[-118.17177,34.20534],[-118.17177,34.20588],[-118.17177,34.20642]]],[[[-118.16329,34.21289],[-118.16329,34.21342],[-118.16264,34.21342],[-118.16264,34.21289],[-118.16329,34.21289]]],[[[-118.16199,34.21342],[-118.16264,34.21342],[-118.16264,34.21396],[-118.16199,34.21396],[-118.16199,34.21342]]],[[[-118.16134,34.2145],[-118.16134,34.21504],[-118.16069,34.21504],[-118.16069,34.21558],[-118.16004,34.21558],[-118.16004,34.21612],[-118.15938,34.21612],[-118.15873,34.21612],[-118.15873,34.21558],[-118.15938,34.21558],[-118.15938,34.21504],[-118.16004,34.21504],[-118.16004,34.2145],[-118.16069,34.2145],[-118.16069,34.21396],[-118.16134,34.21396],[-118.16199,34.21396],[-118.16199,34.2145],[-118.16134,34.2145]]],[[[-118.15873,34.21666],[-118.15873,34.2172],[-118.15808,34.2172],[-118.15808,34.21774],[-118.15743,34.21774],[-118.15743,34.21827],[-118.15678,34.21827],[-118.15678,34.21774],[-118.15678,34.2172],[-118.15743,34.2172],[-118.15743,34.21666],[-118.15808,34.21666],[-118.15808,34.21612],[-118.15873,34.21612],[-118.15873,34.21666]]]]},"properties":{"id":1253,"step":49,"cells":34,"cost":50730,"fuel_group":"shrub"}},{"type":"Feature","geometry":{"type":"Polygon","coordinates":[[[-118.11962,34.23121],[-118.11962,34.23175],[-118.12028,34.23175],[-118.12028,34.23229],[-118.12093,34.23229],[-118.12093,34.23283],[-118.12158,34.23283],[-118.12158,34.23336],[-118.12223,34.23336],[-118.12223,34.2339],[-118.12223,34.23444],[-118.12158,34.23444],[-118.12158,34.2339],[-118.12093,34.2339],[-118.12093,34.23336],[-118.12028,34.23336],[-118.12028,34.23283],[-118.11962,34.23283],[-118.11962,34.23229],[-118.11897,34.23229],[-118.11897,34.23175],[-118.11832,34.23175],[-118.11832,34.23121],[-118.11767,34.23121],[-118.11767,34.23067],[-118.11702,34.23067],[-118.11702,34.23013],[-118.11636,34.23013],[-118.11636,34.22959],[-118.11571,34.22959],[-118.11571,34.22905],[-118.11506,34.22905],[-118.11506,34.22851],[-118.11441,34.22851],[-118.11441,34.22798],[-118.11441,34.22744],[-118.11506,34.22744],[-118.11506,34.22798],[-118.11571,34.22798],[-118.11571,34.22851],[-118.11636,34.22851],[-118.11636,34.22905],[-118.11702,34.22905],[-118.11702,34.22959],[-118.11767,34.22959],[-118.11767,34.23013],[-118.11832,34.23013],[-118.11832,34.23067],[-118.11897,34.23067],[-118.11897,34.23121],[-118.11962,34.23121]]]},"properties":{"id":839,"step":50,"cells":24,"cost":32930,"fuel_group":"shrub"}}]}